{
 "type": "FeatureCollection",
 "features": [
  {
   "type": "Feature",
   "properties": {
    "elv": "mandalselva",
    "navn": "Mandalselva senterlinje",
    "retning": "nedstrøms-oppstrøms",
    "fra": "Munningen i Mandal",
    "til": "Øvre grense Sone 4",
    "lengde_km": 53.28,
    "punkter": 346,
    "tegnet": "2026-09-01",
    "kilde": "manuelt tegnet i geojson.io mot satellittbakgrunn",
    "bruk": "lineærreferanse (km fra munning) for sortering av bilder og video"
   },
   "geometry": {
    "type": "LineString",
    "coordinates": [
     [
      7.4561222,
      58.0200977
     ],
     [
      7.4579844,
      58.021121
     ],
     [
      7.4569834,
      58.0228099
     ],
     [
      7.4539573,
      58.0238084
     ],
     [
      7.4538642,
      58.0255219
     ],
     [
      7.4568903,
      58.0271675
     ],
     [
      7.4622676,
      58.0280673
     ],
     [
      7.4709737,
      58.0290208
     ],
     [
      7.475443,
      58.0304258
     ],
     [
      7.4775846,
      58.0326443
     ],
     [
      7.4828467,
      58.0344498
     ],
     [
      7.4861987,
      58.0367957
     ],
     [
      7.4900163,
      58.0396821
     ],
     [
      7.49267,
      58.0425823
     ],
     [
      7.4952306,
      58.0449508
     ],
     [
      7.4980728,
      58.0480427
     ],
     [
      7.5006323,
      58.0513262
     ],
     [
      7.5038123,
      58.0555534
     ],
     [
      7.505479,
      58.05703
     ],
     [
      7.5057634,
      58.0583705
     ],
     [
      7.5082971,
      58.0610757
     ],
     [
      7.5108566,
      58.0648409
     ],
     [
      7.5113995,
      58.0670262
     ],
     [
      7.5133903,
      58.0708596
     ],
     [
      7.5148122,
      58.0729379
     ],
     [
      7.5156846,
      58.0736164
     ],
     [
      7.5168221,
      58.0741907
     ],
     [
      7.5182699,
      58.0761594
     ],
     [
      7.5173651,
      58.0786885
     ],
     [
      7.5160724,
      58.0808757
     ],
     [
      7.5144953,
      58.0832076
     ],
     [
      7.5134094,
      58.0839594
     ],
     [
      7.5134353,
      58.0854902
     ],
     [
      7.5158397,
      58.0880347
     ],
     [
      7.5224841,
      58.0900243
     ],
     [
      7.5257421,
      58.0926114
     ],
     [
      7.5287153,
      58.0954263
     ],
     [
      7.5304644,
      58.0970904
     ],
     [
      7.5325213,
      58.0981276
     ],
     [
      7.5333317,
      58.0999763
     ],
     [
      7.5333164,
      58.1012374
     ],
     [
      7.5337141,
      58.1029996
     ],
     [
      7.534479,
      58.103428
     ],
     [
      7.5342036,
      58.1044869
     ],
     [
      7.534408,
      58.1057448
     ],
     [
      7.5342836,
      58.1062524
     ],
     [
      7.5346679,
      58.1068555
     ],
     [
      7.5348601,
      58.1079065
     ],
     [
      7.535267,
      58.1089395
     ],
     [
      7.5348036,
      58.1094465
     ],
     [
      7.5343628,
      58.1101631
     ],
     [
      7.5348262,
      58.1108676
     ],
     [
      7.5351652,
      58.1112617
     ],
     [
      7.5350522,
      58.1117632
     ],
     [
      7.5357869,
      58.1118886
     ],
     [
      7.5364763,
      58.1117155
     ],
     [
      7.537211,
      58.1118707
     ],
     [
      7.5375501,
      58.1125203
     ],
     [
      7.5372675,
      58.113177
     ],
     [
      7.5366798,
      58.1137382
     ],
     [
      7.5351878,
      58.1139711
     ],
     [
      7.5334473,
      58.1142935
     ],
     [
      7.5310398,
      58.1152965
     ],
     [
      7.5295594,
      58.1161164
     ],
     [
      7.5272198,
      58.1164866
     ],
     [
      7.5267338,
      58.1173104
     ],
     [
      7.5269147,
      58.1178716
     ],
     [
      7.5281918,
      58.1181999
     ],
     [
      7.5291978,
      58.1182357
     ],
     [
      7.5296386,
      58.1185043
     ],
     [
      7.5293899,
      58.1188088
     ],
     [
      7.5288022,
      58.1192744
     ],
     [
      7.5283727,
      58.1198474
     ],
     [
      7.528757,
      58.120325
     ],
     [
      7.5296838,
      58.1211189
     ],
     [
      7.5306106,
      58.1220175
     ],
     [
      7.531074,
      58.1225607
     ],
     [
      7.5322833,
      58.1229009
     ],
     [
      7.5331197,
      58.1236011
     ],
     [
      7.533391,
      58.1246576
     ],
     [
      7.5336622,
      58.1258007
     ],
     [
      7.5340804,
      58.127563
     ],
     [
      7.5339335,
      58.1283687
     ],
     [
      7.5333119,
      58.1291922
     ],
     [
      7.5339561,
      58.1303004
     ],
     [
      7.5352234,
      58.1316583
     ],
     [
      7.5366362,
      58.1331806
     ],
     [
      7.5375496,
      58.1346957
     ],
     [
      7.5383746,
      58.1360239
     ],
     [
      7.5398666,
      58.1375076
     ],
     [
      7.541521,
      58.1388262
     ],
     [
      7.5426061,
      58.1398464
     ],
     [
      7.5431486,
      58.1409259
     ],
     [
      7.5440302,
      58.1418208
     ],
     [
      7.5453299,
      58.1428882
     ],
     [
      7.5458611,
      58.1435205
     ],
     [
      7.5464715,
      58.1438367
     ],
     [
      7.5475904,
      58.1443676
     ],
     [
      7.5482007,
      58.1453936
     ],
     [
      7.5490333,
      58.1464413
     ],
     [
      7.5494967,
      58.1470915
     ],
     [
      7.5495419,
      58.1476283
     ],
     [
      7.549734,
      58.1478967
     ],
     [
      7.5502426,
      58.1479504
     ],
     [
      7.552051,
      58.1484804
     ],
     [
      7.5529552,
      58.148928
     ],
     [
      7.5534073,
      58.1493813
     ],
     [
      7.5533734,
      58.1499241
     ],
     [
      7.5532265,
      58.1508127
     ],
     [
      7.5529891,
      58.1514973
     ],
     [
      7.5528648,
      58.1525291
     ],
     [
      7.5528196,
      58.1537884
     ],
     [
      7.5527179,
      58.1549534
     ],
     [
      7.5524466,
      58.1560342
     ],
     [
      7.5528422,
      58.1565815
     ],
     [
      7.5533508,
      58.1570764
     ],
     [
      7.5528987,
      58.1578039
     ],
     [
      7.552198,
      58.1583907
     ],
     [
      7.5509773,
      58.1589035
     ],
     [
      7.5509547,
      58.1602545
     ],
     [
      7.5518928,
      58.1613692
     ],
     [
      7.5537464,
      58.1621433
     ],
     [
      7.5561312,
      58.1626144
     ],
     [
      7.5578875,
      58.1632161
     ],
     [
      7.5587239,
      58.1640984
     ],
     [
      7.5587126,
      58.1654756
     ],
     [
      7.5590517,
      58.1663705
     ],
     [
      7.5594812,
      58.1669011
     ],
     [
      7.5594021,
      58.1679682
     ],
     [
      7.5601254,
      58.1694132
     ],
     [
      7.5607358,
      58.170361
     ],
     [
      7.56138,
      58.1709451
     ],
     [
      7.5610522,
      58.1714876
     ],
     [
      7.5615269,
      58.1719287
     ],
     [
      7.5605097,
      58.1724174
     ],
     [
      7.5600463,
      58.1735261
     ],
     [
      7.5597525,
      58.174356
     ],
     [
      7.5581362,
      58.174791
     ],
     [
      7.5562826,
      58.1750354
     ],
     [
      7.5546776,
      58.1745944
     ],
     [
      7.5532761,
      58.1739626
     ],
     [
      7.5507271,
      58.1734023
     ],
     [
      7.5479919,
      58.1736288
     ],
     [
      7.5468052,
      58.1743738
     ],
     [
      7.5453697,
      58.1759218
     ],
     [
      7.5447578,
      58.1777734
     ],
     [
      7.5434128,
      58.1784349
     ],
     [
      7.5407228,
      58.1786792
     ],
     [
      7.5377934,
      58.1799426
     ],
     [
      7.5370748,
      58.1819704
     ],
     [
      7.5367244,
      58.183357
     ],
     [
      7.5356733,
      58.1841078
     ],
     [
      7.5357411,
      58.1856447
     ],
     [
      7.5356261,
      58.1881019
     ],
     [
      7.5357637,
      58.1892351
     ],
     [
      7.5348178,
      58.1909264
     ],
     [
      7.534147,
      58.1918057
     ],
     [
      7.5340782,
      58.1922499
     ],
     [
      7.5323796,
      58.1940546
     ],
     [
      7.5310209,
      58.1949157
     ],
     [
      7.5306425,
      58.1955502
     ],
     [
      7.5297998,
      58.1960759
     ],
     [
      7.529817,
      58.1967557
     ],
     [
      7.5312273,
      58.1972904
     ],
     [
      7.5304705,
      58.1992973
     ],
     [
      7.5295934,
      58.2000949
     ],
     [
      7.5291979,
      58.2012084
     ],
     [
      7.5289571,
      58.2021237
     ],
     [
      7.5283035,
      58.203729
     ],
     [
      7.5274264,
      58.2053146
     ],
     [
      7.5258269,
      58.2070272
     ],
     [
      7.5243651,
      58.2088594
     ],
     [
      7.5248122,
      58.2101732
     ],
     [
      7.5256034,
      58.2109136
     ],
     [
      7.5249842,
      58.2125625
     ],
     [
      7.525139,
      58.213242
     ],
     [
      7.5248982,
      58.2137535
     ],
     [
      7.5252594,
      58.2148406
     ],
     [
      7.5256206,
      58.2150128
     ],
     [
      7.5255346,
      58.2156469
     ],
     [
      7.5255862,
      58.2160806
     ],
     [
      7.5258613,
      58.216615
     ],
     [
      7.5247778,
      58.216914
     ],
     [
      7.5236427,
      58.2170136
     ],
     [
      7.522628,
      58.2173759
     ],
     [
      7.5220776,
      58.2183223
     ],
     [
      7.5214929,
      58.2187661
     ],
     [
      7.5193986,
      58.2192124
     ],
     [
      7.5174895,
      58.2200638
     ],
     [
      7.5164576,
      58.2212956
     ],
     [
      7.5162512,
      58.2222662
     ],
     [
      7.5149269,
      58.2234164
     ],
     [
      7.5150473,
      58.224796
     ],
     [
      7.5164232,
      58.2255839
     ],
     [
      7.5164748,
      58.2267649
     ],
     [
      7.5146862,
      58.2277157
     ],
     [
      7.5112221,
      58.2285822
     ],
     [
      7.5090895,
      58.2297957
     ],
     [
      7.5086595,
      58.2316972
     ],
     [
      7.509141,
      58.2322315
     ],
     [
      7.5113081,
      58.2328653
     ],
     [
      7.5112221,
      58.2340013
     ],
     [
      7.5095882,
      58.2351964
     ],
     [
      7.5095022,
      58.2361405
     ],
     [
      7.5107577,
      58.2374261
     ],
     [
      7.511738,
      58.2396921
     ],
     [
      7.5116348,
      58.2408599
     ],
     [
      7.51234,
      58.242444
     ],
     [
      7.5128387,
      58.2439376
     ],
     [
      7.5137331,
      58.244888
     ],
     [
      7.5148338,
      58.2460013
     ],
     [
      7.5157281,
      58.2471344
     ],
     [
      7.5167772,
      58.2483976
     ],
     [
      7.5171384,
      58.2487053
     ],
     [
      7.517276,
      58.2496375
     ],
     [
      7.5179639,
      58.250755
     ],
     [
      7.5179811,
      58.2517052
     ],
     [
      7.5182907,
      58.2524054
     ],
     [
      7.5182907,
      58.2528578
     ],
     [
      7.5186691,
      58.2539567
     ],
     [
      7.5186691,
      58.2550425
     ],
     [
      7.518927,
      58.2559649
     ],
     [
      7.5188582,
      58.2570417
     ],
     [
      7.518841,
      58.2584894
     ],
     [
      7.5185143,
      58.2598616
     ],
     [
      7.5188582,
      58.2612097
     ],
     [
      7.519185,
      58.2627649
     ],
     [
      7.5195634,
      58.2645624
     ],
     [
      7.5205437,
      58.2676202
     ],
     [
      7.5217992,
      58.270005
     ],
     [
      7.5225387,
      58.2721313
     ],
     [
      7.5223667,
      58.273012
     ],
     [
      7.5217476,
      58.2741244
     ],
     [
      7.5217992,
      58.2748117
     ],
     [
      7.5222464,
      58.2754086
     ],
     [
      7.5230719,
      58.2770678
     ],
     [
      7.5239146,
      58.2781223
     ],
     [
      7.5240178,
      58.279759
     ],
     [
      7.524293,
      58.2813595
     ],
     [
      7.5254625,
      58.282544
     ],
     [
      7.5265131,
      58.28366
     ],
     [
      7.5273386,
      58.2843833
     ],
     [
      7.5270463,
      58.2853688
     ],
     [
      7.5261863,
      58.2864085
     ],
     [
      7.5257736,
      58.287629
     ],
     [
      7.5265303,
      58.290137
     ],
     [
      7.5270291,
      58.2916738
     ],
     [
      7.5270119,
      58.2929853
     ],
     [
      7.528061,
      58.294775
     ],
     [
      7.5275794,
      58.2963955
     ],
     [
      7.5274418,
      58.2982745
     ],
     [
      7.527975,
      58.3011761
     ],
     [
      7.5284221,
      58.3030521
     ],
     [
      7.5289897,
      58.3053858
     ],
     [
      7.5290757,
      58.3077861
     ],
     [
      7.5284049,
      58.3105425
     ],
     [
      7.5284393,
      58.3131214
     ],
     [
      7.5257048,
      58.3152886
     ],
     [
      7.5263411,
      58.3168513
     ],
     [
      7.5243117,
      58.3179197
     ],
     [
      7.5258596,
      58.3198979
     ],
     [
      7.5271151,
      58.3225728
     ],
     [
      7.5301248,
      58.3233044
     ],
     [
      7.5309847,
      58.3252417
     ],
     [
      7.5312255,
      58.3270662
     ],
     [
      7.5308299,
      58.3289176
     ],
     [
      7.5300044,
      58.3307946
     ],
     [
      7.5294713,
      58.3327907
     ],
     [
      7.5290929,
      58.3335509
     ],
     [
      7.5293681,
      58.3342009
     ],
     [
      7.5305548,
      58.3363108
     ],
     [
      7.5302796,
      58.3374258
     ],
     [
      7.529798,
      58.3387349
     ],
     [
      7.5299528,
      58.3394024
     ],
     [
      7.5291273,
      58.3409731
     ],
     [
      7.5288865,
      58.3422727
     ],
     [
      7.5286457,
      58.3444474
     ],
     [
      7.5283534,
      58.3464208
     ],
     [
      7.5283877,
      58.3488694
     ],
     [
      7.5281642,
      58.3510152
     ],
     [
      7.5281642,
      58.3530451
     ],
     [
      7.5297292,
      58.3547325
     ],
     [
      7.5311395,
      58.3556358
     ],
     [
      7.5310019,
      58.3578373
     ],
     [
      7.530314,
      58.3593801
     ],
     [
      7.5306064,
      58.3612416
     ],
     [
      7.5310363,
      58.3629026
     ],
     [
      7.530056,
      58.3645805
     ],
     [
      7.5302968,
      58.3654793
     ],
     [
      7.5299872,
      58.3667421
     ],
     [
      7.5302452,
      58.3685822
     ],
     [
      7.5300904,
      58.3699977
     ],
     [
      7.5298496,
      58.3715851
     ],
     [
      7.529712,
      58.3728935
     ],
     [
      7.5293853,
      58.3741651
     ],
     [
      7.5292477,
      58.3756864
     ],
     [
      7.5291273,
      58.3770847
     ],
     [
      7.5288521,
      58.3798257
     ],
     [
      7.5288005,
      58.3818139
     ],
     [
      7.5288177,
      58.3834311
     ],
     [
      7.5287145,
      58.3850786
     ],
     [
      7.5286629,
      58.3867021
     ],
     [
      7.5278202,
      58.3881264
     ],
     [
      7.528061,
      58.3896296
     ],
     [
      7.5281986,
      58.3914544
     ],
     [
      7.5281126,
      58.3930328
     ],
     [
      7.5282502,
      58.3953138
     ],
     [
      7.5299012,
      58.3967084
     ],
     [
      7.5307096,
      58.3978558
     ],
     [
      7.5309675,
      58.3988922
     ],
     [
      7.5314835,
      58.4000457
     ],
     [
      7.5314491,
      58.4013181
     ],
     [
      7.5318619,
      58.4022283
     ],
     [
      7.5321886,
      58.4040308
     ],
     [
      7.5322058,
      58.406021
     ],
     [
      7.5326702,
      58.4078833
     ],
     [
      7.5330658,
      58.4095766
     ],
     [
      7.5333237,
      58.4112136
     ],
     [
      7.5334785,
      58.4129914
     ],
     [
      7.5339085,
      58.4162273
     ],
     [
      7.5339601,
      58.4196435
     ],
     [
      7.5335129,
      58.4222512
     ],
     [
      7.5333753,
      58.4242135
     ],
     [
      7.5333409,
      58.4259977
     ],
     [
      7.5326358,
      58.4277366
     ],
     [
      7.5321542,
      58.4290469
     ],
     [
      7.5329282,
      58.429317
     ],
     [
      7.5334613,
      58.4301184
     ],
     [
      7.5333237,
      58.4307307
     ],
     [
      7.532653,
      58.431433
     ],
     [
      7.532567,
      58.4318922
     ],
     [
      7.5318447,
      58.4324594
     ],
     [
      7.5322746,
      58.4332337
     ],
     [
      7.5332033,
      58.4338189
     ],
     [
      7.5350356,
      58.4341869
     ],
     [
      7.537495,
      58.434358
     ],
     [
      7.5400403,
      58.434421
     ],
     [
      7.5421098,
      58.4347001
     ],
     [
      7.5434513,
      58.4351232
     ],
     [
      7.5451997,
      58.4352342
     ],
     [
      7.5462756,
      58.4357148
     ],
     [
      7.5469526,
      58.4358848
     ],
     [
      7.5471103,
      58.4361129
     ],
     [
      7.5479357,
      58.4363994
     ],
     [
      7.5486035,
      58.4366308
     ],
     [
      7.5491414,
      58.4367279
     ]
    ]
   }
  }
 ]
}