{
 "type": "FeatureCollection",
 "features": [
  {
   "type": "Feature",
   "properties": {
    "elv": "otra",
    "navn": "Otra senterlinje",
    "retning": "nedstrøms-oppstrøms",
    "fra": "Munningen i Kristiansand",
    "til": "Vigelandsfossen",
    "lengde_km": 15.56,
    "punkter": 56,
    "tegnet": "2026-08-31",
    "kilde": "manuelt tegnet i geojson.io mot satellittbakgrunn",
    "bruk": "lineærreferanse (km fra munning) for sortering av bilder og video"
   },
   "geometry": {
    "type": "LineString",
    "coordinates": [
     [
      8.0132132,
      58.143508
     ],
     [
      8.0109238,
      58.147983
     ],
     [
      8.0001552,
      58.1519206
     ],
     [
      7.9952684,
      58.1564152
     ],
     [
      7.9904041,
      58.1609127
     ],
     [
      7.9886234,
      58.1650277
     ],
     [
      7.9827728,
      58.1677111
     ],
     [
      7.9792115,
      58.1704838
     ],
     [
      7.9735304,
      58.1731221
     ],
     [
      7.9692908,
      58.1769675
     ],
     [
      7.9647297,
      58.1793723
     ],
     [
      7.9623699,
      58.1815021
     ],
     [
      7.959527,
      58.1834156
     ],
     [
      7.9556172,
      58.1857335
     ],
     [
      7.9499882,
      58.1877687
     ],
     [
      7.9451104,
      58.1900254
     ],
     [
      7.9419766,
      58.1933339
     ],
     [
      7.9392739,
      58.1950966
     ],
     [
      7.9379901,
      58.1961827
     ],
     [
      7.9354901,
      58.1976249
     ],
     [
      7.9365374,
      58.200865
     ],
     [
      7.9345289,
      58.2039965
     ],
     [
      7.9340411,
      58.2055584
     ],
     [
      7.9327198,
      58.2070556
     ],
     [
      7.92975,
      58.208177
     ],
     [
      7.9264054,
      58.2085507
     ],
     [
      7.9257635,
      58.2099212
     ],
     [
      7.9277906,
      58.2113806
     ],
     [
      7.9303244,
      58.2124662
     ],
     [
      7.9315406,
      58.2146944
     ],
     [
      7.9297838,
      58.2175415
     ],
     [
      7.9323176,
      58.2211163
     ],
     [
      7.9344798,
      58.2223795
     ],
     [
      7.9368109,
      58.2260275
     ],
     [
      7.9352906,
      58.2275218
     ],
     [
      7.935696,
      58.2293007
     ],
     [
      7.9333311,
      58.2299766
     ],
     [
      7.932235,
      58.2322419
     ],
     [
      7.931169,
      58.2345833
     ],
     [
      7.934919,
      58.2362917
     ],
     [
      7.9379258,
      58.2417155
     ],
     [
      7.9380159,
      58.2427541
     ],
     [
      7.9394686,
      58.2433586
     ],
     [
      7.9419686,
      58.2429852
     ],
     [
      7.9442321,
      58.2423629
     ],
     [
      7.9469011,
      58.2427896
     ],
     [
      7.94832,
      58.243732
     ],
     [
      7.9507187,
      58.2445321
     ],
     [
      7.9524417,
      58.2466835
     ],
     [
      7.9525092,
      58.2491014
     ],
     [
      7.9518335,
      58.2500081
     ],
     [
      7.9532525,
      58.2509147
     ],
     [
      7.9556511,
      58.2511814
     ],
     [
      7.956462,
      58.2517858
     ],
     [
      7.9560228,
      58.2530479
     ],
     [
      7.956766,
      58.2535279
     ]
    ]
   }
  }
 ]
}