{
 "type": "FeatureCollection",
 "features": [
  {
   "type": "Feature",
   "properties": {
    "elv": "tovdalselva",
    "navn": "Tovdalselva senterlinje",
    "retning": "nedstrøms-oppstrøms",
    "fra": "Munningen ved Kristiansand",
    "til": "Øvre grense Sone 4 og 5",
    "lengde_km": 37.8,
    "punkter": 344,
    "tegnet": "2026-09-07",
    "kilde": "manuelt tegnet i geojson.io mot satellittbakgrunn",
    "bruk": "lineærreferanse (km fra munning) for sortering av bilder og video"
   },
   "geometry": {
    "type": "LineString",
    "coordinates": [
     [
      8.0699891,
      58.1944223
     ],
     [
      8.076335,
      58.1946329
     ],
     [
      8.0835303,
      58.1969503
     ],
     [
      8.0900256,
      58.1992673
     ],
     [
      8.0915264,
      58.200795
     ],
     [
      8.0910767,
      58.202849
     ],
     [
      8.092076,
      58.2057978
     ],
     [
      8.0951741,
      58.2078241
     ],
     [
      8.0998708,
      58.2098775
     ],
     [
      8.1057662,
      58.2122201
     ],
     [
      8.1097133,
      58.2138037
     ],
     [
      8.1121616,
      58.2147775
     ],
     [
      8.1142607,
      58.2151723
     ],
     [
      8.1143119,
      58.2165937
     ],
     [
      8.1130632,
      58.2179362
     ],
     [
      8.1119135,
      58.2191731
     ],
     [
      8.112163,
      58.2206468
     ],
     [
      8.1137147,
      58.2223044
     ],
     [
      8.1172613,
      58.2248265
     ],
     [
      8.1209116,
      58.2265635
     ],
     [
      8.1254766,
      58.2289636
     ],
     [
      8.1289253,
      58.2311478
     ],
     [
      8.1311719,
      58.2328056
     ],
     [
      8.1315718,
      58.2344893
     ],
     [
      8.1329702,
      58.2362517
     ],
     [
      8.1332256,
      58.2377857
     ],
     [
      8.1338757,
      58.2395223
     ],
     [
      8.134475,
      58.2408641
     ],
     [
      8.1355252,
      58.241864
     ],
     [
      8.1367738,
      58.242653
     ],
     [
      8.1383721,
      58.2437839
     ],
     [
      8.139422,
      58.2449678
     ],
     [
      8.1400274,
      58.2466125
     ],
     [
      8.140867,
      58.247112
     ],
     [
      8.1429113,
      58.2472657
     ],
     [
      8.1454667,
      58.2486681
     ],
     [
      8.1472529,
      58.2501089
     ],
     [
      8.1491877,
      58.2505315
     ],
     [
      8.1527288,
      58.2504354
     ],
     [
      8.1551382,
      58.2509925
     ],
     [
      8.1552112,
      58.2524332
     ],
     [
      8.1555398,
      58.2540277
     ],
     [
      8.1567079,
      58.2556987
     ],
     [
      8.1561604,
      58.2567935
     ],
     [
      8.1560143,
      58.2576194
     ],
     [
      8.157219,
      58.2585412
     ],
     [
      8.1593398,
      58.2595975
     ],
     [
      8.1619317,
      58.2613259
     ],
     [
      8.164049,
      58.2632846
     ],
     [
      8.1657648,
      58.2653201
     ],
     [
      8.1677361,
      58.2671991
     ],
     [
      8.1699995,
      58.2686391
     ],
     [
      8.1721169,
      58.2697527
     ],
     [
      8.1728835,
      58.2703287
     ],
     [
      8.1724819,
      58.2711734
     ],
     [
      8.1714598,
      58.2720757
     ],
     [
      8.1708392,
      58.2729396
     ],
     [
      8.1709852,
      58.2739187
     ],
     [
      8.1720804,
      58.2747249
     ],
     [
      8.1742342,
      58.2752624
     ],
     [
      8.1752199,
      58.2755435
     ],
     [
      8.1755484,
      58.2760426
     ],
     [
      8.1763881,
      58.2766185
     ],
     [
      8.1768991,
      58.2777894
     ],
     [
      8.1759865,
      58.2790179
     ],
     [
      8.1741977,
      58.2805342
     ],
     [
      8.1736136,
      58.2814764
     ],
     [
      8.1743802,
      58.2827623
     ],
     [
      8.1752199,
      58.2838755
     ],
     [
      8.1751834,
      58.2851164
     ],
     [
      8.1748548,
      58.2858648
     ],
     [
      8.1737231,
      58.2863446
     ],
     [
      8.1721534,
      58.2860183
     ],
     [
      8.1708392,
      58.2864789
     ],
     [
      8.1706931,
      58.2869586
     ],
     [
      8.1717883,
      58.2876111
     ],
     [
      8.1738326,
      58.2876687
     ],
     [
      8.1754024,
      58.2876303
     ],
     [
      8.1767531,
      58.2871505
     ],
     [
      8.1774467,
      58.2864597
     ],
     [
      8.1782134,
      58.2856921
     ],
     [
      8.1800387,
      58.2856345
     ],
     [
      8.1815354,
      58.2861335
     ],
     [
      8.182917,
      58.2869522
     ],
     [
      8.1833915,
      58.2881803
     ],
     [
      8.183282,
      58.2894084
     ],
     [
      8.1828439,
      58.2900225
     ],
     [
      8.1810186,
      58.2905789
     ],
     [
      8.1797044,
      58.2913656
     ],
     [
      8.1793394,
      58.2925552
     ],
     [
      8.1795584,
      58.2937448
     ],
     [
      8.1805441,
      58.294589
     ],
     [
      8.1817408,
      58.2953959
     ],
     [
      8.1821405,
      58.296138
     ],
     [
      8.1831264,
      58.2967261
     ],
     [
      8.1834461,
      58.2973143
     ],
     [
      8.1842455,
      58.2976363
     ],
     [
      8.1853912,
      58.2978323
     ],
     [
      8.1856529,
      58.2983734
     ],
     [
      8.1852266,
      58.2991715
     ],
     [
      8.1847469,
      58.2998156
     ],
     [
      8.1832814,
      58.3002637
     ],
     [
      8.1826419,
      58.3010727
     ],
     [
      8.1822156,
      58.3020108
     ],
     [
      8.1820025,
      58.3030188
     ],
     [
      8.1818159,
      58.3038441
     ],
     [
      8.1826686,
      58.3044461
     ],
     [
      8.1835479,
      58.3050341
     ],
     [
      8.1835213,
      58.3057341
     ],
     [
      8.182562,
      58.306742
     ],
     [
      8.1817893,
      58.307456
     ],
     [
      8.1814695,
      58.3083938
     ],
     [
      8.1822956,
      58.3090377
     ],
     [
      8.1837877,
      58.3097376
     ],
     [
      8.1843473,
      58.3105075
     ],
     [
      8.1845071,
      58.3115153
     ],
     [
      8.1846937,
      58.3125091
     ],
     [
      8.1847469,
      58.3131389
     ],
     [
      8.18512,
      58.3135728
     ],
     [
      8.1862924,
      58.3136288
     ],
     [
      8.1876247,
      58.3134048
     ],
     [
      8.188877,
      58.3131109
     ],
     [
      8.1899961,
      58.3131809
     ],
     [
      8.190609,
      58.3136288
     ],
     [
      8.1915682,
      58.3152277
     ],
     [
      8.1924742,
      58.3163334
     ],
     [
      8.1929271,
      58.3174809
     ],
     [
      8.1930798,
      58.3188843
     ],
     [
      8.1933196,
      58.3199199
     ],
     [
      8.1933196,
      58.3208435
     ],
     [
      8.1939591,
      58.3214731
     ],
     [
      8.1952114,
      58.3220888
     ],
     [
      8.1955578,
      58.3228724
     ],
     [
      8.1964638,
      58.323524
     ],
     [
      8.1975296,
      58.3242936
     ],
     [
      8.1979826,
      58.3248113
     ],
     [
      8.1980892,
      58.3253289
     ],
     [
      8.1986754,
      58.3260145
     ],
     [
      8.1997145,
      58.3265322
     ],
     [
      8.2023791,
      58.3275969
     ],
     [
      8.2047506,
      58.3283104
     ],
     [
      8.2074684,
      58.3291078
     ],
     [
      8.2092803,
      58.3298633
     ],
     [
      8.2101063,
      58.3310244
     ],
     [
      8.2103195,
      58.3320875
     ],
     [
      8.211705,
      58.3331367
     ],
     [
      8.2131173,
      58.3335983
     ],
     [
      8.2154015,
      58.3341019
     ],
     [
      8.2169203,
      58.3345635
     ],
     [
      8.2187322,
      58.3352908
     ],
     [
      8.2200378,
      58.3361021
     ],
     [
      8.2205441,
      58.3367315
     ],
     [
      8.2208638,
      58.3379763
     ],
     [
      8.2209171,
      58.3388295
     ],
     [
      8.2210504,
      58.3395707
     ],
     [
      8.2225692,
      58.3399344
     ],
     [
      8.2245942,
      58.3402001
     ],
     [
      8.2264108,
      58.3406756
     ],
     [
      8.2280362,
      58.3410952
     ],
     [
      8.229102,
      58.3415427
     ],
     [
      8.230008,
      58.3421161
     ],
     [
      8.2305142,
      58.3427174
     ],
     [
      8.2313136,
      58.3432069
     ],
     [
      8.2321662,
      58.3439061
     ],
     [
      8.2332854,
      58.3442557
     ],
     [
      8.2339249,
      58.344885
     ],
     [
      8.2350973,
      58.3454723
     ],
     [
      8.2357101,
      58.3463672
     ],
     [
      8.2363762,
      58.3472341
     ],
     [
      8.2367493,
      58.3477795
     ],
     [
      8.2361364,
      58.3482968
     ],
     [
      8.2362164,
      58.3488701
     ],
     [
      8.2369891,
      58.3491637
     ],
     [
      8.2381615,
      58.3490938
     ],
     [
      8.2396004,
      58.348968
     ],
     [
      8.2413369,
      58.3493397
     ],
     [
      8.2424294,
      58.3497172
     ],
     [
      8.2426692,
      58.3502625
     ],
     [
      8.2435218,
      58.3505002
     ],
     [
      8.2451472,
      58.3504303
     ],
     [
      8.2461864,
      58.3508777
     ],
     [
      8.2464795,
      58.3516746
     ],
     [
      8.2467992,
      58.3527534
     ],
     [
      8.2469858,
      58.3536481
     ],
     [
      8.2471456,
      58.3545568
     ],
     [
      8.247945,
      58.35513
     ],
     [
      8.2493077,
      58.3557698
     ],
     [
      8.2500004,
      58.3561752
     ],
     [
      8.2504801,
      58.3569581
     ],
     [
      8.251013,
      58.3574613
     ],
     [
      8.2517324,
      58.3581463
     ],
     [
      8.2521054,
      58.3590968
     ],
     [
      8.2523719,
      58.3600473
     ],
     [
      8.2529048,
      58.3610397
     ],
     [
      8.2529048,
      58.3621299
     ],
     [
      8.2527449,
      58.3631362
     ],
     [
      8.2531446,
      58.3648786
     ],
     [
      8.2540506,
      58.3662482
     ],
     [
      8.2546634,
      58.3677006
     ],
     [
      8.2555427,
      58.369154
     ],
     [
      8.256875,
      58.3704729
     ],
     [
      8.2578342,
      58.3717025
     ],
     [
      8.2579408,
      58.3724984
     ],
     [
      8.2577809,
      58.3731691
     ],
     [
      8.2568217,
      58.3736442
     ],
     [
      8.2570882,
      58.3741751
     ],
     [
      8.258074,
      58.3746082
     ],
     [
      8.2586602,
      58.3749156
     ],
     [
      8.2586602,
      58.375209
     ],
     [
      8.2581806,
      58.3752649
     ],
     [
      8.2577543,
      58.3752649
     ],
     [
      8.2573813,
      58.3755723
     ],
     [
      8.2573813,
      58.3758657
     ],
     [
      8.2579142,
      58.376201
     ],
     [
      8.2583139,
      58.3765782
     ],
     [
      8.2584204,
      58.3770952
     ],
     [
      8.2582606,
      58.377626
     ],
     [
      8.2580474,
      58.3781988
     ],
     [
      8.2581273,
      58.3789532
     ],
     [
      8.2582339,
      58.3796378
     ],
     [
      8.2585537,
      58.3803921
     ],
     [
      8.2591132,
      58.3810366
     ],
     [
      8.2593264,
      58.3815395
     ],
     [
      8.2603922,
      58.3820703
     ],
     [
      8.2622719,
      58.3826429
     ],
     [
      8.2638174,
      58.3831318
     ],
     [
      8.2653095,
      58.3836068
     ],
     [
      8.2661622,
      58.3840537
     ],
     [
      8.2670148,
      58.3845426
     ],
     [
      8.2671214,
      58.3849896
     ],
     [
      8.2668816,
      58.3853807
     ],
     [
      8.2663221,
      58.3858975
     ],
     [
      8.2658424,
      58.38654
     ],
     [
      8.2658957,
      58.3871406
     ],
     [
      8.2668017,
      58.3876434
     ],
     [
      8.2682672,
      58.3886417
     ],
     [
      8.2693863,
      58.3894797
     ],
     [
      8.2698393,
      58.3899266
     ],
     [
      8.2707719,
      58.3901361
     ],
     [
      8.271438,
      58.3906249
     ],
     [
      8.2724239,
      58.3916644
     ],
     [
      8.2730367,
      58.3923068
     ],
     [
      8.2737029,
      58.393005
     ],
     [
      8.2740759,
      58.3934379
     ],
     [
      8.2738361,
      58.394116
     ],
     [
      8.2741292,
      58.3946885
     ],
     [
      8.2750618,
      58.3949399
     ],
     [
      8.2757279,
      58.3953029
     ],
     [
      8.2764207,
      58.3959732
     ],
     [
      8.2776198,
      58.3965736
     ],
     [
      8.278579,
      58.3971633
     ],
     [
      8.2795649,
      58.3979034
     ],
     [
      8.2800445,
      58.3981687
     ],
     [
      8.2804176,
      58.3989645
     ],
     [
      8.2808705,
      58.3993415
     ],
     [
      8.2813768,
      58.3996487
     ],
     [
      8.2812169,
      58.4005562
     ],
     [
      8.281137,
      58.4016569
     ],
     [
      8.2816965,
      58.4025225
     ],
     [
      8.2820962,
      58.4028157
     ],
     [
      8.2821762,
      58.4032345
     ],
     [
      8.2826824,
      58.4037092
     ],
     [
      8.283083,
      58.404316
     ],
     [
      8.2835778,
      58.4050858
     ],
     [
      8.2842529,
      58.4058583
     ],
     [
      8.2844305,
      58.406575
     ],
     [
      8.2849102,
      58.4070962
     ],
     [
      8.2856564,
      58.4075709
     ],
     [
      8.2857985,
      58.4082317
     ],
     [
      8.286367,
      58.408818
     ],
     [
      8.2870599,
      58.4095253
     ],
     [
      8.2878061,
      58.4105304
     ],
     [
      8.2880548,
      58.4113494
     ],
     [
      8.2881259,
      58.4123079
     ],
     [
      8.2887121,
      58.413401
     ],
     [
      8.2893517,
      58.4142757
     ],
     [
      8.2904887,
      58.4152749
     ],
     [
      8.291679,
      58.4161961
     ],
     [
      8.2920166,
      58.4170335
     ],
     [
      8.2926562,
      58.418101
     ],
     [
      8.2934023,
      58.4191431
     ],
     [
      8.2939353,
      58.4200269
     ],
     [
      8.2939886,
      58.4208177
     ],
     [
      8.2944861,
      58.4220489
     ],
     [
      8.2944683,
      58.4229885
     ],
     [
      8.2949657,
      58.4238351
     ],
     [
      8.2955632,
      58.4246621
     ],
     [
      8.2962738,
      58.4255831
     ],
     [
      8.2968601,
      58.4261598
     ],
     [
      8.2971443,
      58.4269505
     ],
     [
      8.2982918,
      58.427538
     ],
     [
      8.2994466,
      58.4282264
     ],
     [
      8.2998019,
      58.4290914
     ],
     [
      8.3002105,
      58.4298169
     ],
     [
      8.3007612,
      58.4303843
     ],
     [
      8.3014896,
      58.4317201
     ],
     [
      8.3019693,
      58.4324641
     ],
     [
      8.3020049,
      58.4330965
     ],
     [
      8.302751,
      58.4336824
     ],
     [
      8.3032485,
      58.4343034
     ],
     [
      8.3034794,
      58.434973
     ],
     [
      8.3036393,
      58.4355682
     ],
     [
      8.3046342,
      58.4367276
     ],
     [
      8.3053804,
      58.4370531
     ],
     [
      8.3063688,
      58.4370834
     ],
     [
      8.3073992,
      58.4369718
     ],
     [
      8.3084297,
      58.4370369
     ],
     [
      8.309691,
      58.4373252
     ],
     [
      8.3117358,
      58.4381064
     ],
     [
      8.313388,
      58.4391665
     ],
     [
      8.3149692,
      58.4402079
     ],
     [
      8.3156443,
      58.4407751
     ],
     [
      8.3160707,
      58.4411378
     ],
     [
      8.3163727,
      58.4418121
     ],
     [
      8.316426,
      58.4426118
     ],
     [
      8.3159463,
      58.4430488
     ],
     [
      8.315591,
      58.4434671
     ],
     [
      8.3157864,
      58.4439692
     ],
     [
      8.3164971,
      58.4443732
     ],
     [
      8.3172788,
      58.444866
     ],
     [
      8.3178295,
      58.445117
     ],
     [
      8.3185046,
      58.4454889
     ],
     [
      8.3186823,
      58.4458515
     ],
     [
      8.318931,
      58.4462884
     ],
     [
      8.31886,
      58.4466696
     ],
     [
      8.3188955,
      58.4471901
     ],
     [
      8.3186823,
      58.44772
     ],
     [
      8.3188422,
      58.4483614
     ],
     [
      8.3188955,
      58.448789
     ],
     [
      8.3190021,
      58.449291
     ],
     [
      8.3193398,
      58.4496621
     ],
     [
      8.3203525,
      58.4500432
     ],
     [
      8.3211697,
      58.4506846
     ],
     [
      8.3222356,
      58.451075
     ],
     [
      8.3231062,
      58.451577
     ],
     [
      8.3238168,
      58.4522091
     ],
     [
      8.3240122,
      58.4528226
     ],
     [
      8.3246696,
      58.4534174
     ],
     [
      8.3247406,
      58.4541796
     ],
     [
      8.324634,
      58.4549511
     ],
     [
      8.3252558,
      58.4555366
     ],
     [
      8.3265528,
      58.4560478
     ],
     [
      8.3276272,
      58.4568285
     ],
     [
      8.3286384,
      58.4577806
     ]
    ]
   }
  }
 ]
}