{
 "type": "FeatureCollection",
 "features": [
  {
   "type": "Feature",
   "properties": {
    "elv": "audna",
    "navn": "Audna senterlinje",
    "retning": "nedstrøms-oppstrøms",
    "fra": "Munningen ved Snig",
    "til": "Øvre grense Sone8",
    "lengde_km": 38.79,
    "punkter": 634,
    "tegnet": "2026-08-31",
    "kilde": "manuelt tegnet i geojson.io mot satellittbakgrunn",
    "bruk": "lineærreferanse (km fra munning) for sortering av bilder og video"
   },
   "geometry": {
    "type": "LineString",
    "coordinates": [
     [
      7.2814784,
      58.0530469
     ],
     [
      7.2793017,
      58.0573339
     ],
     [
      7.2794629,
      58.0606652
     ],
     [
      7.2804707,
      58.0630962
     ],
     [
      7.2834939,
      58.0646314
     ],
     [
      7.2877265,
      58.0661453
     ],
     [
      7.2913141,
      58.0675951
     ],
     [
      7.293892,
      58.0692127
     ],
     [
      7.2956657,
      58.0706624
     ],
     [
      7.2970362,
      58.0727303
     ],
     [
      7.2983664,
      58.0749046
     ],
     [
      7.3005059,
      58.0770206
     ],
     [
      7.3017555,
      58.0786192
     ],
     [
      7.304416,
      58.0802817
     ],
     [
      7.3065121,
      58.0820126
     ],
     [
      7.3084067,
      58.0839307
     ],
     [
      7.3090114,
      58.08457
     ],
     [
      7.3091726,
      58.086083
     ],
     [
      7.3098579,
      58.0874894
     ],
     [
      7.3095757,
      58.0891302
     ],
     [
      7.3090517,
      58.0907922
     ],
     [
      7.3090517,
      58.0918958
     ],
     [
      7.3095757,
      58.0933233
     ],
     [
      7.3105835,
      58.0939411
     ],
     [
      7.3121959,
      58.0942394
     ],
     [
      7.313647,
      58.0945589
     ],
     [
      7.314816,
      58.0953685
     ],
     [
      7.3153804,
      58.0963698
     ],
     [
      7.3165091,
      58.0972006
     ],
     [
      7.3179443,
      58.0974617
     ],
     [
      7.3187102,
      58.0976747
     ],
     [
      7.3191133,
      58.0982499
     ],
     [
      7.3192745,
      58.0995493
     ],
     [
      7.3195003,
      58.100599
     ],
     [
      7.319597,
      58.1011712
     ],
     [
      7.3205058,
      58.1020703
     ],
     [
      7.3214339,
      58.1028673
     ],
     [
      7.3222073,
      58.1033168
     ],
     [
      7.3230194,
      58.1038087
     ],
     [
      7.3236188,
      58.1042888
     ],
     [
      7.3245276,
      58.1044829
     ],
     [
      7.3256104,
      58.104391
     ],
     [
      7.3268865,
      58.1041662
     ],
     [
      7.328588,
      58.1039823
     ],
     [
      7.3304325,
      58.1039619
     ],
     [
      7.3321727,
      58.1039721
     ],
     [
      7.3337388,
      58.1042378
     ],
     [
      7.3346089,
      58.1045442
     ],
     [
      7.3353037,
      58.1046972
     ],
     [
      7.3365412,
      58.1046257
     ],
     [
      7.3375853,
      58.104452
     ],
     [
      7.3377593,
      58.1039922
     ],
     [
      7.3377787,
      58.1035529
     ],
     [
      7.3381847,
      58.1033486
     ],
     [
      7.3389001,
      58.1032873
     ],
     [
      7.3395962,
      58.1035631
     ],
     [
      7.340215,
      58.1040944
     ],
     [
      7.3410464,
      58.105065
     ],
     [
      7.3413713,
      58.1058557
     ],
     [
      7.3413907,
      58.106581
     ],
     [
      7.3413133,
      58.1073983
     ],
     [
      7.3411973,
      58.1084198
     ],
     [
      7.3408493,
      58.1092472
     ],
     [
      7.3407332,
      58.1099827
     ],
     [
      7.3403465,
      58.1103096
     ],
     [
      7.3395731,
      58.1104628
     ],
     [
      7.338297,
      58.110759
     ],
     [
      7.3374462,
      58.1110756
     ],
     [
      7.3373495,
      58.1115149
     ],
     [
      7.3376202,
      58.1120256
     ],
     [
      7.3383163,
      58.1125261
     ],
     [
      7.3392444,
      58.1129857
     ],
     [
      7.3399343,
      58.1137109
     ],
     [
      7.3403983,
      58.1143135
     ],
     [
      7.340553,
      58.1149059
     ],
     [
      7.3408044,
      58.1153144
     ],
     [
      7.3412877,
      58.1157229
     ],
     [
      7.3417518,
      58.1162744
     ],
     [
      7.341998,
      58.1169757
     ],
     [
      7.3421726,
      58.1173026
     ],
     [
      7.3418552,
      58.1178724
     ],
     [
      7.3416014,
      58.1186602
     ],
     [
      7.341887,
      58.1190624
     ],
     [
      7.3416807,
      58.1194479
     ],
     [
      7.3411095,
      58.1198334
     ],
     [
      7.3403162,
      58.1201351
     ],
     [
      7.3395387,
      58.1202524
     ],
     [
      7.3385867,
      58.1202105
     ],
     [
      7.3376823,
      58.1204986
     ],
     [
      7.3369366,
      58.1208841
     ],
     [
      7.3367938,
      58.1212192
     ],
     [
      7.3367938,
      58.1217974
     ],
     [
      7.3369842,
      58.1223337
     ],
     [
      7.3373809,
      58.1227527
     ],
     [
      7.3377934,
      58.1232051
     ],
     [
      7.3379838,
      58.1235989
     ],
     [
      7.3380631,
      58.1241771
     ],
     [
      7.3382218,
      58.1246212
     ],
     [
      7.3388247,
      58.1249814
     ],
     [
      7.3392802,
      58.1252747
     ],
     [
      7.3393182,
      58.1256511
     ],
     [
      7.3392992,
      58.1260023
     ],
     [
      7.3394797,
      58.1263135
     ],
     [
      7.3399074,
      58.1265694
     ],
     [
      7.3405631,
      58.1265844
     ],
     [
      7.3412949,
      58.1266095
     ],
     [
      7.3419696,
      58.126783
     ],
     [
      7.3424542,
      58.1270991
     ],
     [
      7.3428154,
      58.1275005
     ],
     [
      7.3431201,
      58.1280022
     ],
     [
      7.3435383,
      58.1284036
     ],
     [
      7.3441845,
      58.1287499
     ],
     [
      7.3448402,
      58.1290058
     ],
     [
      7.345781,
      58.1291463
     ],
     [
      7.3469689,
      58.1292366
     ],
     [
      7.3478699,
      58.1292516
     ],
     [
      7.3487157,
      58.1292215
     ],
     [
      7.349723,
      58.1291663
     ],
     [
      7.3503977,
      58.1292868
     ],
     [
      7.3510344,
      58.129347
     ],
     [
      7.3516332,
      58.1293369
     ],
     [
      7.352282,
      58.1292265
     ],
     [
      7.3528712,
      58.129071
     ],
     [
      7.3532704,
      58.1288502
     ],
     [
      7.3535365,
      58.1285642
     ],
     [
      7.3537455,
      58.1283033
     ],
     [
      7.3540782,
      58.1280172
     ],
     [
      7.3545058,
      58.1277814
     ],
     [
      7.3552471,
      58.1278717
     ],
     [
      7.3559883,
      58.128243
     ],
     [
      7.3566134,
      58.1285582
     ],
     [
      7.3572121,
      58.1288091
     ],
     [
      7.3575542,
      58.1289998
     ],
     [
      7.3576302,
      58.1292657
     ],
     [
      7.3579723,
      58.1294213
     ],
     [
      7.3586376,
      58.1295969
     ],
     [
      7.3590557,
      58.1297926
     ],
     [
      7.3594929,
      58.1300485
     ],
     [
      7.3602384,
      58.1302108
     ],
     [
      7.3611982,
      58.1301857
     ],
     [
      7.3621581,
      58.1301105
     ],
     [
      7.3628613,
      58.1300252
     ],
     [
      7.3633175,
      58.1298596
     ],
     [
      7.3643058,
      58.1299048
     ],
     [
      7.3650565,
      58.1301004
     ],
     [
      7.3654367,
      58.1305119
     ],
     [
      7.3657598,
      58.1310854
     ],
     [
      7.3656172,
      58.1315069
     ],
     [
      7.3652656,
      58.1320136
     ],
     [
      7.3651326,
      58.1325383
     ],
     [
      7.3652181,
      58.1332106
     ],
     [
      7.3653226,
      58.133913
     ],
     [
      7.3656077,
      58.1344864
     ],
     [
      7.3661684,
      58.1350684
     ],
     [
      7.3665771,
      58.1356481
     ],
     [
      7.3667101,
      58.1363203
     ],
     [
      7.3665295,
      58.1368822
     ],
     [
      7.3664155,
      58.1376046
     ],
     [
      7.366463,
      58.1381915
     ],
     [
      7.3664345,
      58.1386641
     ],
     [
      7.366349,
      58.1389952
     ],
     [
      7.3667196,
      58.1393765
     ],
     [
      7.3668146,
      58.1398982
     ],
     [
      7.3669477,
      58.1404249
     ],
     [
      7.3672708,
      58.1408412
     ],
     [
      7.3677365,
      58.1410698
     ],
     [
      7.3680881,
      58.1413106
     ],
     [
      7.3679265,
      58.1415514
     ],
     [
      7.3673753,
      58.1417018
     ],
     [
      7.3665486,
      58.1419376
     ],
     [
      7.366501,
      58.1422385
     ],
     [
      7.3666436,
      58.1426542
     ],
     [
      7.3664155,
      58.1430204
     ],
     [
      7.3664155,
      58.1434166
     ],
     [
      7.366482,
      58.1438329
     ],
     [
      7.3665961,
      58.1444147
     ],
     [
      7.3664725,
      58.1450267
     ],
     [
      7.3662349,
      58.1456185
     ],
     [
      7.3659499,
      58.1464009
     ],
     [
      7.3658548,
      58.1471282
     ],
     [
      7.3656362,
      58.1476601
     ],
     [
      7.3653702,
      58.1482419
     ],
     [
      7.3650565,
      58.1487735
     ],
     [
      7.3648475,
      58.1493151
     ],
     [
      7.364933,
      58.1497738
     ],
     [
      7.3652941,
      58.1501499
     ],
     [
      7.3658833,
      58.1506464
     ],
     [
      7.3663205,
      58.1511101
     ],
     [
      7.3665486,
      58.1516567
     ],
     [
      7.3665486,
      58.1519786
     ],
     [
      7.3661779,
      58.1522043
     ],
     [
      7.3655412,
      58.1523698
     ],
     [
      7.3638686,
      58.1527358
     ],
     [
      7.3632794,
      58.1529464
     ],
     [
      7.3629373,
      58.1532872
     ],
     [
      7.3629373,
      58.1537285
     ],
     [
      7.3631559,
      58.1541747
     ],
     [
      7.3636596,
      58.1547363
     ],
     [
      7.3639922,
      58.1551943
     ],
     [
      7.3637926,
      58.1556255
     ],
     [
      7.3629848,
      58.1559614
     ],
     [
      7.362006,
      58.1562121
     ],
     [
      7.3611222,
      58.1564746
     ],
     [
      7.3603049,
      58.1570512
     ],
     [
      7.3597062,
      58.1575275
     ],
     [
      7.3592406,
      58.1580584
     ],
     [
      7.3590695,
      58.158635
     ],
     [
      7.3590885,
      58.1591363
     ],
     [
      7.3592026,
      58.1595826
     ],
     [
      7.3590695,
      58.160129
     ],
     [
      7.3587464,
      58.1605953
     ],
     [
      7.3584138,
      58.1609663
     ],
     [
      7.3582522,
      58.1614776
     ],
     [
      7.3584233,
      58.161994
     ],
     [
      7.359041,
      58.1623248
     ],
     [
      7.3595352,
      58.1625254
     ],
     [
      7.3598298,
      58.1629565
     ],
     [
      7.3597347,
      58.1633926
     ],
     [
      7.3596207,
      58.1636224
     ],
     [
      7.3590885,
      58.163853
     ],
     [
      7.3582902,
      58.1640786
     ],
     [
      7.3574682,
      58.1643671
     ],
     [
      7.3564989,
      58.1648033
     ],
     [
      7.3556911,
      58.165094
     ],
     [
      7.3549594,
      58.1651993
     ],
     [
      7.3542846,
      58.1651892
     ],
     [
      7.3535909,
      58.165109
     ],
     [
      7.3531537,
      58.1651842
     ],
     [
      7.3529067,
      58.1653697
     ],
     [
      7.3527261,
      58.1656604
     ],
     [
      7.3526691,
      58.1659936
     ],
     [
      7.3528782,
      58.1664448
     ],
     [
      7.3533058,
      58.1668007
     ],
     [
      7.3535814,
      58.1670112
     ],
     [
      7.3536859,
      58.1672267
     ],
     [
      7.3535149,
      58.1674523
     ],
     [
      7.3530587,
      58.1676377
     ],
     [
      7.3525455,
      58.1677981
     ],
     [
      7.3521179,
      58.1679234
     ],
     [
      7.3519468,
      58.1684979
     ],
     [
      7.3517568,
      58.1691996
     ],
     [
      7.3514907,
      58.1696958
     ],
     [
      7.3514432,
      58.1700467
     ],
     [
      7.3517378,
      58.1702873
     ],
     [
      7.352346,
      58.1704226
     ],
     [
      7.3528877,
      58.1704476
     ],
     [
      7.3535434,
      58.1704025
     ],
     [
      7.3546458,
      58.1703474
     ],
     [
      7.355387,
      58.1702873
     ],
     [
      7.3560997,
      58.1702002
     ],
     [
      7.3566794,
      58.1701601
     ],
     [
      7.3571831,
      58.1702754
     ],
     [
      7.3576583,
      58.1704558
     ],
     [
      7.3578103,
      58.1706763
     ],
     [
      7.3578008,
      58.170957
     ],
     [
      7.3574587,
      58.1711575
     ],
     [
      7.3567935,
      58.1713579
     ],
     [
      7.3559192,
      58.1716642
     ],
     [
      7.3551969,
      58.1720451
     ],
     [
      7.3547598,
      58.1723358
     ],
     [
      7.3548548,
      58.1726766
     ],
     [
      7.3551399,
      58.1729372
     ],
     [
      7.3557006,
      58.1732279
     ],
     [
      7.3562233,
      58.1736085
     ],
     [
      7.3565464,
      58.1738841
     ],
     [
      7.3564989,
      58.17424
     ],
     [
      7.3562328,
      58.1746308
     ],
     [
      7.3558432,
      58.1749516
     ],
     [
      7.3552064,
      58.175122
     ],
     [
      7.3544557,
      58.1752623
     ],
     [
      7.3537235,
      58.1753324
     ],
     [
      7.3530963,
      58.1752773
     ],
     [
      7.3527256,
      58.1752372
     ],
     [
      7.352279,
      58.1752723
     ],
     [
      7.3519179,
      58.1755028
     ],
     [
      7.3517088,
      58.1757534
     ],
     [
      7.3515282,
      58.176024
     ],
     [
      7.3514237,
      58.1763214
     ],
     [
      7.3515853,
      58.176632
     ],
     [
      7.352298,
      58.1772183
     ],
     [
      7.3527827,
      58.1776693
     ],
     [
      7.3530297,
      58.1782956
     ],
     [
      7.3533814,
      58.1788017
     ],
     [
      7.3536189,
      58.1791184
     ],
     [
      7.3541606,
      58.1794341
     ],
     [
      7.3547973,
      58.1797147
     ],
     [
      7.3555291,
      58.1797097
     ],
     [
      7.3562703,
      58.1796796
     ],
     [
      7.3569926,
      58.1797898
     ],
     [
      7.3576863,
      58.179865
     ],
     [
      7.3584466,
      58.17987
     ],
     [
      7.3587032,
      58.1801346
     ],
     [
      7.3585131,
      58.1804302
     ],
     [
      7.3579429,
      58.1806356
     ],
     [
      7.3574012,
      58.180841
     ],
     [
      7.3573822,
      58.1811818
     ],
     [
      7.3577528,
      58.1816454
     ],
     [
      7.3582565,
      58.1821114
     ],
     [
      7.3589883,
      58.1825222
     ],
     [
      7.3591688,
      58.1828374
     ],
     [
      7.3590833,
      58.1833634
     ],
     [
      7.3588742,
      58.1837091
     ],
     [
      7.3584371,
      58.1838945
     ],
     [
      7.3576578,
      58.1840348
     ],
     [
      7.3563559,
      58.18418
     ],
     [
      7.3554531,
      58.1844806
     ],
     [
      7.3551109,
      58.1847361
     ],
     [
      7.355206,
      58.1852171
     ],
     [
      7.3556336,
      58.1858185
     ],
     [
      7.3562228,
      58.1863595
     ],
     [
      7.356774,
      58.1869757
     ],
     [
      7.3569736,
      58.1875218
     ],
     [
      7.3569831,
      58.1877873
     ],
     [
      7.3565935,
      58.1880127
     ],
     [
      7.3558997,
      58.1881129
     ],
     [
      7.3548259,
      58.188163
     ],
     [
      7.3536189,
      58.1880728
     ],
     [
      7.3522885,
      58.1880127
     ],
     [
      7.3511099,
      58.1880085
     ],
     [
      7.3499695,
      58.1881788
     ],
     [
      7.3491142,
      58.1884193
     ],
     [
      7.34843,
      58.1887399
     ],
     [
      7.3477743,
      58.1891657
     ],
     [
      7.3467503,
      58.1898219
     ],
     [
      7.3459235,
      58.1903629
     ],
     [
      7.3450302,
      58.1908338
     ],
     [
      7.3441939,
      58.1911944
     ],
     [
      7.3433875,
      58.1912241
     ],
     [
      7.3426843,
      58.1913994
     ],
     [
      7.3422471,
      58.1915647
     ],
     [
      7.3422186,
      58.1919504
     ],
     [
      7.3421046,
      58.192862
     ],
     [
      7.3420951,
      58.1935382
     ],
     [
      7.3420666,
      58.1943203
     ],
     [
      7.3422091,
      58.1948512
     ],
     [
      7.3421046,
      58.1957427
     ],
     [
      7.3421711,
      58.1962318
     ],
     [
      7.3428648,
      58.1968127
     ],
     [
      7.3438437,
      58.1976984
     ],
     [
      7.3437011,
      58.1980239
     ],
     [
      7.3432069,
      58.1983143
     ],
     [
      7.3423992,
      58.1984796
     ],
     [
      7.3407286,
      58.198723
     ],
     [
      7.3391986,
      58.1990986
     ],
     [
      7.3381248,
      58.1995242
     ],
     [
      7.337374,
      58.1999849
     ],
     [
      7.3365852,
      58.2007461
     ],
     [
      7.3361671,
      58.2012728
     ],
     [
      7.335882,
      58.2021291
     ],
     [
      7.3359675,
      58.2029843
     ],
     [
      7.3363667,
      58.20345
     ],
     [
      7.3369083,
      58.2039457
     ],
     [
      7.337374,
      58.2047469
     ],
     [
      7.3379062,
      58.2059942
     ],
     [
      7.3380677,
      58.2067753
     ],
     [
      7.3376971,
      58.2074312
     ],
     [
      7.3372315,
      58.2086108
     ],
     [
      7.3369654,
      58.2094368
     ],
     [
      7.3368228,
      58.210349
     ],
     [
      7.3365567,
      58.211165
     ],
     [
      7.3362906,
      58.212122
     ],
     [
      7.3360626,
      58.213104
     ],
     [
      7.335939,
      58.2138733
     ],
     [
      7.3355779,
      58.2144239
     ],
     [
      7.3356634,
      58.2148043
     ],
     [
      7.3363952,
      58.2149845
     ],
     [
      7.3369844,
      58.2150396
     ],
     [
      7.3376686,
      58.2152648
     ],
     [
      7.3378492,
      58.2158205
     ],
     [
      7.3379347,
      58.216052
     ],
     [
      7.3382863,
      58.2163173
     ],
     [
      7.3383813,
      58.2166827
     ],
     [
      7.3385049,
      58.2171482
     ],
     [
      7.338733,
      58.2178039
     ],
     [
      7.3390846,
      58.2183595
     ],
     [
      7.3392176,
      58.218835
     ],
     [
      7.3397308,
      58.2193405
     ],
     [
      7.3400064,
      58.2197659
     ],
     [
      7.3399494,
      58.2201413
     ],
     [
      7.3395122,
      58.2206518
     ],
     [
      7.338885,
      58.2211423
     ],
     [
      7.3384289,
      58.2215476
     ],
     [
      7.3376306,
      58.2221747
     ],
     [
      7.3358915,
      58.2229104
     ],
     [
      7.3354876,
      58.2232365
     ],
     [
      7.3355352,
      58.223812
     ],
     [
      7.3358107,
      58.2242848
     ],
     [
      7.3357917,
      58.2249253
     ],
     [
      7.3356017,
      58.2255759
     ],
     [
      7.3358393,
      58.2261347
     ],
     [
      7.3357252,
      58.2268153
     ],
     [
      7.3356302,
      58.2274207
     ],
     [
      7.3356207,
      58.2277625
     ],
     [
      7.3361053,
      58.228438
     ],
     [
      7.3367611,
      58.2286831
     ],
     [
      7.3373788,
      58.2288483
     ],
     [
      7.3377969,
      58.2290734
     ],
     [
      7.3380915,
      58.2293687
     ],
     [
      7.3387567,
      58.2295688
     ],
     [
      7.3389373,
      58.229936
     ],
     [
      7.3389088,
      58.2304363
     ],
     [
      7.3389753,
      58.2309517
     ],
     [
      7.3394885,
      58.2313719
     ],
     [
      7.3398971,
      58.2317622
     ],
     [
      7.3401062,
      58.2321274
     ],
     [
      7.3402297,
      58.2327178
     ],
     [
      7.3404198,
      58.2331331
     ],
     [
      7.340857,
      58.2334833
     ],
     [
      7.3415412,
      58.2336584
     ],
     [
      7.3423386,
      58.2339496
     ],
     [
      7.3428327,
      58.2340997
     ],
     [
      7.3435645,
      58.2340547
     ],
     [
      7.3438912,
      58.2343436
     ],
     [
      7.3443474,
      58.2351041
     ],
     [
      7.3447465,
      58.2353792
     ],
     [
      7.3446325,
      58.2356944
     ],
     [
      7.3450411,
      58.2360346
     ],
     [
      7.3453072,
      58.2363748
     ],
     [
      7.3452787,
      58.236775
     ],
     [
      7.3455923,
      58.2371902
     ],
     [
      7.3454212,
      58.2375804
     ],
     [
      7.3449175,
      58.2380506
     ],
     [
      7.3443569,
      58.2386209
     ],
     [
      7.3441288,
      58.2391211
     ],
     [
      7.3443854,
      58.2397765
     ],
     [
      7.3445944,
      58.2401817
     ],
     [
      7.3445374,
      58.2404318
     ],
     [
      7.3448795,
      58.2406819
     ],
     [
      7.3452882,
      58.2412871
     ],
     [
      7.3455543,
      58.2418352
     ],
     [
      7.3456493,
      58.2426205
     ],
     [
      7.3457918,
      58.2432525
     ],
     [
      7.3458774,
      58.2435626
     ],
     [
      7.3466566,
      58.2442928
     ],
     [
      7.3472173,
      58.244807
     ],
     [
      7.3474549,
      58.2452271
     ],
     [
      7.3475119,
      58.2457223
     ],
     [
      7.3474359,
      58.2463774
     ],
     [
      7.3473979,
      58.2473956
     ],
     [
      7.3473979,
      58.2480507
     ],
     [
      7.3471603,
      58.2486308
     ],
     [
      7.3470843,
      58.2493803
     ],
     [
      7.3469512,
      58.2499604
     ],
     [
      7.3466376,
      58.2503755
     ],
     [
      7.3467327,
      58.2509456
     ],
     [
      7.3467707,
      58.2514061
     ],
     [
      7.3469988,
      58.2520111
     ],
     [
      7.3467422,
      58.2526462
     ],
     [
      7.346134,
      58.2532262
     ],
     [
      7.3455258,
      58.2535962
     ],
     [
      7.3452407,
      58.2539912
     ],
     [
      7.3450886,
      58.2545855
     ],
     [
      7.3450886,
      58.2550505
     ],
     [
      7.3449651,
      58.2554205
     ],
     [
      7.344718,
      58.2558405
     ],
     [
      7.344642,
      58.2561805
     ],
     [
      7.3445469,
      58.2564355
     ],
     [
      7.3446705,
      58.2569355
     ],
     [
      7.3449651,
      58.2575844
     ],
     [
      7.3451741,
      58.2581093
     ],
     [
      7.3453737,
      58.2585493
     ],
     [
      7.3455828,
      58.2589174
     ],
     [
      7.346381,
      58.2592424
     ],
     [
      7.3471508,
      58.2595546
     ],
     [
      7.3474549,
      58.2597746
     ],
     [
      7.3475024,
      58.2601695
     ],
     [
      7.3475975,
      58.2611244
     ],
     [
      7.3478065,
      58.2614733
     ],
     [
      7.3482437,
      58.2619033
     ],
     [
      7.3490452,
      58.2626642
     ],
     [
      7.3496534,
      58.2631241
     ],
     [
      7.3501,
      58.2632341
     ],
     [
      7.3505657,
      58.2632591
     ],
     [
      7.3506512,
      58.263569
     ],
     [
      7.3509648,
      58.2638989
     ],
     [
      7.3516301,
      58.2647561
     ],
     [
      7.3519532,
      58.265076
     ],
     [
      7.3523333,
      58.265336
     ],
     [
      7.3524949,
      58.2656609
     ],
     [
      7.3522288,
      58.2661993
     ],
     [
      7.3519912,
      58.2669241
     ],
     [
      7.3518581,
      58.267244
     ],
     [
      7.3520577,
      58.2675289
     ],
     [
      7.3526089,
      58.2677138
     ],
     [
      7.3530727,
      58.2681361
     ],
     [
      7.3531582,
      58.2685909
     ],
     [
      7.3529492,
      58.2689758
     ],
     [
      7.3524075,
      58.2692707
     ],
     [
      7.3518373,
      58.2695956
     ],
     [
      7.3515332,
      58.2700756
     ],
     [
      7.3512576,
      58.2707853
     ],
     [
      7.3510105,
      58.27138
     ],
     [
      7.350868,
      58.2719408
     ],
     [
      7.351039,
      58.2725755
     ],
     [
      7.350887,
      58.2730502
     ],
     [
      7.3507064,
      58.2736888
     ],
     [
      7.3504118,
      58.2741585
     ],
     [
      7.3498511,
      58.2747846
     ],
     [
      7.3495565,
      58.2753193
     ],
     [
      7.349471,
      58.275744
     ],
     [
      7.3491669,
      58.2760838
     ],
     [
      7.3491289,
      58.2763964
     ],
     [
      7.3490338,
      58.2766113
     ],
     [
      7.3491099,
      58.2768111
     ],
     [
      7.349509,
      58.2768811
     ],
     [
      7.3499842,
      58.2768611
     ],
     [
      7.3504878,
      58.2766862
     ],
     [
      7.3516187,
      58.2764064
     ],
     [
      7.3521224,
      58.2762914
     ],
     [
      7.352607,
      58.2762415
     ],
     [
      7.3530727,
      58.2763514
     ],
     [
      7.3534433,
      58.2765913
     ],
     [
      7.3536714,
      58.2769211
     ],
     [
      7.3537854,
      58.2773758
     ],
     [
      7.3534718,
      58.2780154
     ],
     [
      7.3531202,
      58.2787299
     ],
     [
      7.35255,
      58.2793545
     ],
     [
      7.3517803,
      58.280019
     ],
     [
      7.351077,
      58.2808567
     ],
     [
      7.3508014,
      58.2816711
     ],
     [
      7.3506114,
      58.2824505
     ],
     [
      7.3508109,
      58.2829751
     ],
     [
      7.3513146,
      58.2836445
     ],
     [
      7.3512196,
      58.2840891
     ],
     [
      7.35102,
      58.2846087
     ],
     [
      7.351001,
      58.2848385
     ],
     [
      7.3512291,
      58.2850084
     ],
     [
      7.3517232,
      58.2851533
     ],
     [
      7.352341,
      58.285194
     ],
     [
      7.3530917,
      58.2852339
     ],
     [
      7.3540135,
      58.2857185
     ],
     [
      7.3546502,
      58.2860282
     ],
     [
      7.3549643,
      58.2864254
     ],
     [
      7.3550023,
      58.2868051
     ],
     [
      7.3552304,
      58.2873346
     ],
     [
      7.3554299,
      58.2876643
     ],
     [
      7.3556865,
      58.2879491
     ],
     [
      7.3557626,
      58.2881139
     ],
     [
      7.355506,
      58.2882488
     ],
     [
      7.3548502,
      58.2886934
     ],
     [
      7.3544131,
      58.2891529
     ],
     [
      7.3543181,
      58.2894526
     ],
     [
      7.3544891,
      58.2897623
     ],
     [
      7.3550498,
      58.290107
     ],
     [
      7.3556295,
      58.2907417
     ],
     [
      7.3558386,
      58.2911912
     ],
     [
      7.3560952,
      58.2915558
     ],
     [
      7.3565893,
      58.2919224
     ],
     [
      7.3567414,
      58.292332
     ],
     [
      7.3563613,
      58.2927266
     ],
     [
      7.355506,
      58.2930213
     ],
     [
      7.3541565,
      58.2933803
     ],
     [
      7.3531682,
      58.2936999
     ],
     [
      7.352731,
      58.2939297
     ],
     [
      7.3523984,
      58.2940196
     ],
     [
      7.3523794,
      58.2942443
     ],
     [
      7.3527405,
      58.294519
     ],
     [
      7.3536053,
      58.2950177
     ],
     [
      7.354109,
      58.2952973
     ],
     [
      7.3546792,
      58.295552
     ],
     [
      7.3549548,
      58.2957468
     ],
     [
      7.3550023,
      58.2961701
     ],
     [
      7.3551353,
      58.2968293
     ],
     [
      7.3554204,
      58.2973851
     ],
     [
      7.3555345,
      58.2977497
     ],
     [
      7.3556295,
      58.2985037
     ],
     [
      7.355677,
      58.2988983
     ],
     [
      7.3561712,
      58.2992778
     ],
     [
      7.3564753,
      58.2994825
     ],
     [
      7.3567752,
      58.2997654
     ],
     [
      7.3572218,
      58.300065
     ],
     [
      7.3573644,
      58.3003197
     ],
     [
      7.3574974,
      58.3005194
     ],
     [
      7.3578396,
      58.3006442
     ],
     [
      7.3581912,
      58.3007891
     ],
     [
      7.3581912,
      58.3010287
     ],
     [
      7.3579821,
      58.3012884
     ],
     [
      7.3578396,
      58.3017079
     ],
     [
      7.3580201,
      58.3020774
     ],
     [
      7.3582387,
      58.3027245
     ],
     [
      7.3584192,
      58.3034185
     ],
     [
      7.3585428,
      58.3038629
     ],
     [
      7.3589324,
      58.3041583
     ],
     [
      7.3590845,
      58.3043281
     ],
     [
      7.359056,
      58.3045428
     ],
     [
      7.3594266,
      58.3047026
     ],
     [
      7.3597972,
      58.3050875
     ],
     [
      7.3598827,
      58.3057166
     ],
     [
      7.3599873,
      58.3062658
     ],
     [
      7.3597505,
      58.3066845
     ],
     [
      7.3597219,
      58.307458
     ],
     [
      7.3597505,
      58.3080321
     ],
     [
      7.3599215,
      58.3083317
     ],
     [
      7.359855,
      58.3086312
     ],
     [
      7.3600641,
      58.3088758
     ],
     [
      7.3606723,
      58.3089956
     ],
     [
      7.3613343,
      58.3092608
     ],
     [
      7.3619425,
      58.3096402
     ],
     [
      7.3625792,
      58.3102343
     ],
     [
      7.3629498,
      58.3108483
     ],
     [
      7.3629688,
      58.3114523
     ],
     [
      7.3626647,
      58.3121412
     ],
     [
      7.3624176,
      58.3126114
     ],
     [
      7.362009,
      58.3129558
     ],
     [
      7.3615338,
      58.3132553
     ],
     [
      7.3614293,
      58.3136746
     ],
     [
      7.3611347,
      58.3139292
     ],
     [
      7.3608686,
      58.3141788
     ],
     [
      7.3609541,
      58.3143834
     ],
     [
      7.3613438,
      58.3145332
     ],
     [
      7.3617524,
      58.3148826
     ],
     [
      7.3623796,
      58.3151771
     ],
     [
      7.3631019,
      58.3155015
     ],
     [
      7.3638498,
      58.3157986
     ],
     [
      7.3645055,
      58.3162478
     ],
     [
      7.3650377,
      58.316707
     ],
     [
      7.3653893,
      58.3169216
     ],
     [
      7.3657505,
      58.3172392
     ],
     [
      7.3661021,
      58.3176834
     ],
     [
      7.3661401,
      58.3181127
     ],
     [
      7.3661211,
      58.3185319
     ],
     [
      7.3659785,
      58.3189462
     ],
     [
      7.3656839,
      58.3192946
     ],
     [
      7.3653323,
      58.3197537
     ],
     [
      7.3652373,
      58.3200881
     ],
     [
      7.3653133,
      58.3205622
     ],
     [
      7.3655889,
      58.3209699
     ],
     [
      7.3659785,
      58.3212294
     ],
     [
      7.3661021,
      58.3214939
     ],
     [
      7.3662636,
      58.3216896
     ],
     [
      7.3663492,
      58.3224183
     ],
     [
      7.3664062,
      58.3232025
     ],
     [
      7.3663587,
      58.3237266
     ],
     [
      7.3662066,
      58.324172
     ]
    ]
   }
  }
 ]
}