{
 "type": "FeatureCollection",
 "features": [
  {
   "type": "Feature",
   "properties": {
    "elv": "sygna",
    "navn": "Sygna senterlinje",
    "retning": "nedstrøms-oppstrøms",
    "fra": "Munningen i Søgne",
    "til": "Øvre grense lakseførende strekning",
    "lengde_km": 32.38,
    "punkter": 812,
    "tegnet": "2026-09-07",
    "kilde": "manuelt tegnet i geojson.io mot satellittbakgrunn",
    "bruk": "lineærreferanse (km fra munning) for sortering av bilder og video"
   },
   "geometry": {
    "type": "LineString",
    "coordinates": [
     [
      7.8142756,
      58.0752617
     ],
     [
      7.8168708,
      58.077866
     ],
     [
      7.8190531,
      58.0797216
     ],
     [
      7.8209995,
      58.0808443
     ],
     [
      7.8226805,
      58.0815303
     ],
     [
      7.8268092,
      58.0818422
     ],
     [
      7.8286966,
      58.0821073
     ],
     [
      7.8307315,
      58.0820293
     ],
     [
      7.8315867,
      58.0819981
     ],
     [
      7.8318816,
      58.0822632
     ],
     [
      7.8326484,
      58.0822632
     ],
     [
      7.8333848,
      58.0823691
     ],
     [
      7.8345596,
      58.0830224
     ],
     [
      7.8357192,
      58.0837323
     ],
     [
      7.8369416,
      58.0843127
     ],
     [
      7.8376892,
      58.0847362
     ],
     [
      7.8380172,
      58.0851515
     ],
     [
      7.8378799,
      58.08545
     ],
     [
      7.8371476,
      58.085571
     ],
     [
      7.8366288,
      58.0854742
     ],
     [
      7.8359119,
      58.0860705
     ],
     [
      7.8355762,
      58.0865665
     ],
     [
      7.835622,
      58.0868488
     ],
     [
      7.8360034,
      58.08699
     ],
     [
      7.8367357,
      58.0870424
     ],
     [
      7.837346,
      58.0869859
     ],
     [
      7.8381089,
      58.0867924
     ],
     [
      7.8391006,
      58.0865262
     ],
     [
      7.8398633,
      58.0863609
     ],
     [
      7.8405041,
      58.0863447
     ],
     [
      7.8414119,
      58.0863931
     ],
     [
      7.8425485,
      58.0866069
     ],
     [
      7.8435631,
      58.0866795
     ],
     [
      7.8445472,
      58.0866149
     ],
     [
      7.8452871,
      58.0865464
     ],
     [
      7.8461263,
      58.0863286
     ],
     [
      7.8464772,
      58.0860826
     ],
     [
      7.8468662,
      58.0857318
     ],
     [
      7.8473602,
      58.0855785
     ],
     [
      7.8482133,
      58.0855301
     ],
     [
      7.8488159,
      58.0851873
     ],
     [
      7.8490905,
      58.0850704
     ],
     [
      7.8492279,
      58.0848042
     ],
     [
      7.8497771,
      58.0846268
     ],
     [
      7.8504484,
      58.0845017
     ],
     [
      7.8510053,
      58.0844695
     ],
     [
      7.8517224,
      58.0844775
     ],
     [
      7.8519055,
      58.0846268
     ],
     [
      7.8517605,
      58.0848405
     ],
     [
      7.8510968,
      58.0851833
     ],
     [
      7.8506925,
      58.0855906
     ],
     [
      7.8506468,
      58.0860302
     ],
     [
      7.8507688,
      58.0864993
     ],
     [
      7.8512418,
      58.0871042
     ],
     [
      7.8518537,
      58.0876292
     ],
     [
      7.8524639,
      58.08798
     ],
     [
      7.852914,
      58.0882864
     ],
     [
      7.8530285,
      58.0886493
     ],
     [
      7.8529369,
      58.0889598
     ],
     [
      7.8524105,
      58.0891856
     ],
     [
      7.8518003,
      58.089355
     ],
     [
      7.8511389,
      58.0894639
     ],
     [
      7.8505591,
      58.0894921
     ],
     [
      7.8500022,
      58.0893429
     ],
     [
      7.8497047,
      58.0891211
     ],
     [
      7.8495598,
      58.0888106
     ],
     [
      7.8495445,
      58.0885122
     ],
     [
      7.8496742,
      58.0881735
     ],
     [
      7.8497429,
      58.0879073
     ],
     [
      7.8496208,
      58.0876976
     ],
     [
      7.8491021,
      58.0876049
     ],
     [
      7.848652,
      58.087738
     ],
     [
      7.8479654,
      58.0880404
     ],
     [
      7.8476832,
      58.0881533
     ],
     [
      7.8471644,
      58.0881977
     ],
     [
      7.8467525,
      58.088363
     ],
     [
      7.8465694,
      58.0889312
     ],
     [
      7.8463101,
      58.0892296
     ],
     [
      7.8457698,
      58.0893769
     ],
     [
      7.8451748,
      58.0892922
     ],
     [
      7.8447857,
      58.0889656
     ],
     [
      7.8443128,
      58.088639
     ],
     [
      7.8437864,
      58.0884535
     ],
     [
      7.8425353,
      58.088514
     ],
     [
      7.8415131,
      58.0887196
     ],
     [
      7.8407578,
      58.0889253
     ],
     [
      7.8400483,
      58.0892519
     ],
     [
      7.8394686,
      58.0896068
     ],
     [
      7.8386523,
      58.0898648
     ],
     [
      7.8377979,
      58.0901027
     ],
     [
      7.8367175,
      58.0904679
     ],
     [
      7.8357716,
      58.0906857
     ],
     [
      7.8349248,
      58.0908591
     ],
     [
      7.8348409,
      58.0912099
     ],
     [
      7.8349554,
      58.0914921
     ],
     [
      7.8348409,
      58.0917824
     ],
     [
      7.8345053,
      58.0917703
     ],
     [
      7.8338035,
      58.0916373
     ],
     [
      7.833239,
      58.0914074
     ],
     [
      7.8327318,
      58.0910814
     ],
     [
      7.832152,
      58.0906822
     ],
     [
      7.8317706,
      58.0903718
     ],
     [
      7.831412,
      58.0901258
     ],
     [
      7.8309238,
      58.0901218
     ],
     [
      7.8303135,
      58.0904201
     ],
     [
      7.8297809,
      58.0906782
     ],
     [
      7.8290257,
      58.0908274
     ],
     [
      7.8281942,
      58.0909161
     ],
     [
      7.827439,
      58.0911621
     ],
     [
      7.8267524,
      58.0913234
     ],
     [
      7.826165,
      58.0914242
     ],
     [
      7.8255318,
      58.0913677
     ],
     [
      7.8249902,
      58.0911701
     ],
     [
      7.8247308,
      58.0909282
     ],
     [
      7.8246164,
      58.0905935
     ],
     [
      7.8244486,
      58.0902427
     ],
     [
      7.8241969,
      58.090029
     ],
     [
      7.8233806,
      58.0899242
     ],
     [
      7.8226712,
      58.0900653
     ],
     [
      7.822305,
      58.0902629
     ],
     [
      7.8224804,
      58.0906419
     ],
     [
      7.8229153,
      58.0909766
     ],
     [
      7.8234798,
      58.0913113
     ],
     [
      7.824174,
      58.0916742
     ],
     [
      7.8247156,
      58.0920448
     ],
     [
      7.8252496,
      58.0921537
     ],
     [
      7.8257149,
      58.0923875
     ],
     [
      7.8261269,
      58.0925851
     ],
     [
      7.826226,
      58.0928673
     ],
     [
      7.8260658,
      58.0930528
     ],
     [
      7.8256234,
      58.0931657
     ],
     [
      7.8249978,
      58.0931415
     ],
     [
      7.8244944,
      58.092944
     ],
     [
      7.8238307,
      58.0927303
     ],
     [
      7.8231823,
      58.0925448
     ],
     [
      7.8224194,
      58.0925085
     ],
     [
      7.8220151,
      58.0927141
     ],
     [
      7.822038,
      58.0930407
     ],
     [
      7.8223202,
      58.0934278
     ],
     [
      7.8224754,
      58.0938845
     ],
     [
      7.8224831,
      58.0942473
     ],
     [
      7.8222466,
      58.0945739
     ],
     [
      7.8218652,
      58.0947432
     ],
     [
      7.8210947,
      58.0948239
     ],
     [
      7.8205912,
      58.0946425
     ],
     [
      7.8201945,
      58.0943481
     ],
     [
      7.8196377,
      58.0941385
     ],
     [
      7.8188748,
      58.0940659
     ],
     [
      7.8181959,
      58.094207
     ],
     [
      7.8178924,
      58.094457
     ],
     [
      7.8176178,
      58.0949126
     ],
     [
      7.8177627,
      58.0953864
     ],
     [
      7.8183243,
      58.0957139
     ],
     [
      7.8190948,
      58.0959276
     ],
     [
      7.8202772,
      58.0960727
     ],
     [
      7.8208569,
      58.0963307
     ],
     [
      7.8211468,
      58.0968589
     ],
     [
      7.8215435,
      58.0972096
     ],
     [
      7.822375,
      58.0976612
     ],
     [
      7.8229014,
      58.0979353
     ],
     [
      7.8234201,
      58.0983223
     ],
     [
      7.824077,
      58.0989984
     ],
     [
      7.824489,
      58.0992605
     ],
     [
      7.8247255,
      58.0996354
     ],
     [
      7.8249009,
      58.1002547
     ],
     [
      7.8249848,
      58.1007159
     ],
     [
      7.8249391,
      58.1013408
     ],
     [
      7.8249467,
      58.1018652
     ],
     [
      7.8253586,
      58.1022239
     ],
     [
      7.8258011,
      58.1024739
     ],
     [
      7.826419,
      58.1026956
     ],
     [
      7.8268284,
      58.1027827
     ],
     [
      7.8275303,
      58.1028069
     ],
     [
      7.8279956,
      58.1027666
     ],
     [
      7.8286974,
      58.1027545
     ],
     [
      7.8293153,
      58.102823
     ],
     [
      7.8295594,
      58.1030971
     ],
     [
      7.8296205,
      58.1034156
     ],
     [
      7.8296662,
      58.1036574
     ],
     [
      7.8300705,
      58.1039637
     ],
     [
      7.8305816,
      58.1042177
     ],
     [
      7.8309326,
      58.1045683
     ],
     [
      7.8312816,
      58.1049048
     ],
     [
      7.8316478,
      58.1052393
     ],
     [
      7.831808,
      58.1055537
     ],
     [
      7.8317164,
      58.1059201
     ],
     [
      7.831396,
      58.1062143
     ],
     [
      7.8307781,
      58.106444
     ],
     [
      7.8301373,
      58.1066659
     ],
     [
      7.8296415,
      58.1069198
     ],
     [
      7.8297178,
      58.1071697
     ],
     [
      7.8303052,
      58.1075163
     ],
     [
      7.8306561,
      58.1076735
     ],
     [
      7.8313579,
      58.1076372
     ],
     [
      7.8321665,
      58.1075445
     ],
     [
      7.8327158,
      58.1075849
     ],
     [
      7.8330133,
      58.1078871
     ],
     [
      7.8328226,
      58.1083965
     ],
     [
      7.8328226,
      58.1089326
     ],
     [
      7.8330209,
      58.1094202
     ],
     [
      7.8333947,
      58.1099448
     ],
     [
      7.8337837,
      58.1105131
     ],
     [
      7.8343863,
      58.1113299
     ],
     [
      7.8346609,
      58.1117168
     ],
     [
      7.8352178,
      58.1123151
     ],
     [
      7.8356069,
      58.1127745
     ],
     [
      7.8359349,
      58.1132632
     ],
     [
      7.8360951,
      58.1136218
     ],
     [
      7.8361332,
      58.1140858
     ],
     [
      7.8362248,
      58.1144525
     ],
     [
      7.8366443,
      58.114662
     ],
     [
      7.8371402,
      58.1148555
     ],
     [
      7.8375292,
      58.114932
     ],
     [
      7.8378539,
      58.1153901
     ],
     [
      7.8381743,
      58.1158696
     ],
     [
      7.8385252,
      58.1162363
     ],
     [
      7.8386854,
      58.1167175
     ],
     [
      7.8388075,
      58.1171032
     ],
     [
      7.8391737,
      58.1174668
     ],
     [
      7.8396619,
      58.1180631
     ],
     [
      7.8401349,
      58.1185748
     ],
     [
      7.8406463,
      58.1191651
     ],
     [
      7.8411345,
      58.1196566
     ],
     [
      7.8417601,
      58.1200353
     ],
     [
      7.8426675,
      58.1205222
     ],
     [
      7.8430795,
      58.1208525
     ],
     [
      7.8431024,
      58.1211225
     ],
     [
      7.8426904,
      58.1213118
     ],
     [
      7.8420115,
      58.1213118
     ],
     [
      7.8410045,
      58.1213118
     ],
     [
      7.8405621,
      58.1214327
     ],
     [
      7.8402493,
      58.1217268
     ],
     [
      7.8399899,
      58.1221844
     ],
     [
      7.8400739,
      58.1226799
     ],
     [
      7.840496,
      58.1230353
     ],
     [
      7.8410605,
      58.1233535
     ],
     [
      7.8417775,
      58.1234261
     ],
     [
      7.8427692,
      58.123422
     ],
     [
      7.8435397,
      58.1233737
     ],
     [
      7.844211,
      58.1234905
     ],
     [
      7.8448671,
      58.1236194
     ],
     [
      7.8457922,
      58.1240172
     ],
     [
      7.8464101,
      58.1244845
     ],
     [
      7.8466542,
      58.1248994
     ],
     [
      7.8466771,
      58.1253989
     ],
     [
      7.8467229,
      58.125975
     ],
     [
      7.846845,
      58.1262449
     ],
     [
      7.8473027,
      58.1265183
     ],
     [
      7.8479969,
      58.1267036
     ],
     [
      7.8487521,
      58.1266311
     ],
     [
      7.8492098,
      58.1264257
     ],
     [
      7.8495836,
      58.1262001
     ],
     [
      7.8496446,
      58.1260148
     ],
     [
      7.8500794,
      58.125906
     ],
     [
      7.8505905,
      58.1258657
     ],
     [
      7.8514067,
      58.1259906
     ],
     [
      7.8515364,
      58.1262243
     ],
     [
      7.851155,
      58.12647
     ],
     [
      7.8505829,
      58.1265949
     ],
     [
      7.8499268,
      58.1267117
     ],
     [
      7.8493852,
      58.1268157
     ],
     [
      7.8490343,
      58.1269808
     ],
     [
      7.8489809,
      58.1272426
     ],
     [
      7.8490724,
      58.1275246
     ],
     [
      7.8492326,
      58.1277864
     ],
     [
      7.8494996,
      58.1279878
     ],
     [
      7.8499039,
      58.1281328
     ],
     [
      7.8504532,
      58.1282376
     ],
     [
      7.8511578,
      58.1283785
     ],
     [
      7.8515316,
      58.1284912
     ],
     [
      7.8521342,
      58.1287571
     ],
     [
      7.852325,
      58.1290191
     ],
     [
      7.8521953,
      58.129297
     ],
     [
      7.8518215,
      58.1295306
     ],
     [
      7.8513943,
      58.1298166
     ],
     [
      7.8510357,
      58.130053
     ],
     [
      7.8506314,
      58.130335
     ],
     [
      7.8504102,
      58.1306169
     ],
     [
      7.8503644,
      58.1308896
     ],
     [
      7.8505857,
      58.1312078
     ],
     [
      7.850929,
      58.1314938
     ],
     [
      7.8509671,
      58.1317314
     ],
     [
      7.850845,
      58.1320174
     ],
     [
      7.85099,
      58.1324181
     ],
     [
      7.8512875,
      58.1327886
     ],
     [
      7.8516308,
      58.1330866
     ],
     [
      7.8518215,
      58.1333565
     ],
     [
      7.8518291,
      58.1336545
     ],
     [
      7.8514172,
      58.1340563
     ],
     [
      7.8509976,
      58.1343261
     ],
     [
      7.8507154,
      58.1346201
     ],
     [
      7.8504712,
      58.1348818
     ],
     [
      7.8501127,
      58.1353594
     ],
     [
      7.8498915,
      58.1355729
     ],
     [
      7.8494719,
      58.1358105
     ],
     [
      7.8493041,
      58.1362716
     ],
     [
      7.8491134,
      58.1367508
     ],
     [
      7.8488921,
      58.1371414
     ],
     [
      7.8486099,
      58.1376207
     ],
     [
      7.8483429,
      58.1380033
     ],
     [
      7.848157,
      58.1384849
     ],
     [
      7.8481722,
      58.1388514
     ],
     [
      7.8479052,
      58.1392219
     ],
     [
      7.8475238,
      58.1395561
     ],
     [
      7.8470661,
      58.1398863
     ],
     [
      7.8468525,
      58.1401782
     ],
     [
      7.8471577,
      58.1403151
     ],
     [
      7.8477222,
      58.1403916
     ],
     [
      7.8483935,
      58.1404359
     ],
     [
      7.8490038,
      58.1403835
     ],
     [
      7.8493775,
      58.1404198
     ],
     [
      7.8501023,
      58.1402748
     ],
     [
      7.8507507,
      58.140154
     ],
     [
      7.8513228,
      58.1403151
     ],
     [
      7.8516966,
      58.1405406
     ],
     [
      7.8518415,
      58.1408466
     ],
     [
      7.85175,
      58.1411731
     ],
     [
      7.8513076,
      58.1413261
     ],
     [
      7.85056,
      58.1412899
     ],
     [
      7.8497056,
      58.1412697
     ],
     [
      7.8491487,
      58.1413986
     ],
     [
      7.8490034,
      58.1416169
     ],
     [
      7.8490339,
      58.1418263
     ],
     [
      7.8493162,
      58.1421041
     ],
     [
      7.8497815,
      58.1423377
     ],
     [
      7.8500866,
      58.1425992
     ],
     [
      7.8502697,
      58.1428891
     ],
     [
      7.8501858,
      58.1431749
     ],
     [
      7.8499722,
      58.1433923
     ],
     [
      7.8493772,
      58.1434165
     ],
     [
      7.8489881,
      58.143191
     ],
     [
      7.848622,
      58.1428891
     ],
     [
      7.8481643,
      58.1426716
     ],
     [
      7.8475387,
      58.142571
     ],
     [
      7.8468827,
      58.1425589
     ],
     [
      7.8462495,
      58.1427119
     ],
     [
      7.8457689,
      58.1429454
     ],
     [
      7.8454485,
      58.1432799
     ],
     [
      7.8451229,
      58.1436624
     ],
     [
      7.8447414,
      58.1439885
     ],
     [
      7.8444821,
      58.1442865
     ],
     [
      7.8440701,
      58.1445965
     ],
     [
      7.8436963,
      58.1448824
     ],
     [
      7.8431156,
      58.1452444
     ],
     [
      7.8424137,
      58.1455544
     ],
     [
      7.8417653,
      58.145808
     ],
     [
      7.8412313,
      58.1460254
     ],
     [
      7.8409872,
      58.1462066
     ],
     [
      7.8412847,
      58.1463998
     ],
     [
      7.8419865,
      58.1465126
     ],
     [
      7.8425282,
      58.1466307
     ],
     [
      7.8428638,
      58.1468159
     ],
     [
      7.8428943,
      58.1470856
     ],
     [
      7.8426807,
      58.1473232
     ],
     [
      7.8421696,
      58.1473876
     ],
     [
      7.8415822,
      58.1473071
     ],
     [
      7.8409567,
      58.1471742
     ],
     [
      7.8402701,
      58.147146
     ],
     [
      7.8397056,
      58.1471863
     ],
     [
      7.8390237,
      58.1473734
     ],
     [
      7.8384744,
      58.1474941
     ],
     [
      7.8382151,
      58.1477437
     ],
     [
      7.8379557,
      58.1479974
     ],
     [
      7.8380167,
      58.148259
     ],
     [
      7.8384287,
      58.148416
     ],
     [
      7.8390542,
      58.1484643
     ],
     [
      7.8395424,
      58.1484563
     ],
     [
      7.8403117,
      58.1486459
     ],
     [
      7.8407388,
      58.1487949
     ],
     [
      7.8412347,
      58.1488915
     ],
     [
      7.8418984,
      58.1489921
     ],
     [
      7.8424019,
      58.1490726
     ],
     [
      7.8428596,
      58.149266
     ],
     [
      7.8429892,
      58.1494673
     ],
     [
      7.8427223,
      58.1497088
     ],
     [
      7.8421959,
      58.1498055
     ],
     [
      7.8417839,
      58.1499021
     ],
     [
      7.8413568,
      58.1499383
     ],
     [
      7.841044,
      58.1502161
     ],
     [
      7.8407007,
      58.1504817
     ],
     [
      7.8402506,
      58.1507434
     ],
     [
      7.8397548,
      58.1508118
     ],
     [
      7.838935,
      58.1509241
     ],
     [
      7.8383094,
      58.151061
     ],
     [
      7.8377754,
      58.1513387
     ],
     [
      7.8370202,
      58.1514595
     ],
     [
      7.8364481,
      58.1514877
     ],
     [
      7.8357539,
      58.1514232
     ],
     [
      7.8352199,
      58.1513749
     ],
     [
      7.834663,
      58.1514192
     ],
     [
      7.8340985,
      58.1514031
     ],
     [
      7.8336484,
      58.1513427
     ],
     [
      7.8330687,
      58.1512622
     ],
     [
      7.8326186,
      58.1514595
     ],
     [
      7.8323668,
      58.1517775
     ],
     [
      7.8320211,
      58.152118
     ],
     [
      7.8321203,
      58.1523837
     ],
     [
      7.8320745,
      58.1526171
     ],
     [
      7.8317846,
      58.1526493
     ],
     [
      7.8314184,
      58.1525004
     ],
     [
      7.8307776,
      58.1524481
     ],
     [
      7.8302055,
      58.1525406
     ],
     [
      7.8298393,
      58.1527459
     ],
     [
      7.8297554,
      58.15308
     ],
     [
      7.8296257,
      58.15339
     ],
     [
      7.8294427,
      58.1535952
     ],
     [
      7.8291146,
      58.1537361
     ],
     [
      7.8285806,
      58.153877
     ],
     [
      7.8278102,
      58.1539977
     ],
     [
      7.8271333,
      58.1541678
     ],
     [
      7.8264696,
      58.1543691
     ],
     [
      7.8261111,
      58.1545099
     ],
     [
      7.8260958,
      58.1548199
     ],
     [
      7.8263628,
      58.1551097
     ],
     [
      7.8267138,
      58.155331
     ],
     [
      7.8270799,
      58.1555323
     ],
     [
      7.8274461,
      58.1557763
     ],
     [
      7.8278351,
      58.1559171
     ],
     [
      7.8284073,
      58.1559735
     ],
     [
      7.8288726,
      58.1561144
     ],
     [
      7.829193,
      58.1562973
     ],
     [
      7.8292464,
      58.1566555
     ],
     [
      7.8294295,
      58.1569494
     ],
     [
      7.8298719,
      58.1571466
     ],
     [
      7.8305127,
      58.1571184
     ],
     [
      7.8310544,
      58.1570017
     ],
     [
      7.8317638,
      58.1568367
     ],
     [
      7.8326577,
      58.1567079
     ],
     [
      7.83294,
      58.1568125
     ],
     [
      7.8333977,
      58.1570218
     ],
     [
      7.8335655,
      58.1572593
     ],
     [
      7.8335807,
      58.1575128
     ],
     [
      7.8334816,
      58.1577382
     ],
     [
      7.8331612,
      58.1578871
     ],
     [
      7.8325738,
      58.1579193
     ],
     [
      7.8319711,
      58.1578227
     ],
     [
      7.8314524,
      58.1578026
     ],
     [
      7.8310786,
      58.1579032
     ],
     [
      7.8308421,
      58.1581366
     ],
     [
      7.8306972,
      58.1584487
     ],
     [
      7.8306438,
      58.1587746
     ],
     [
      7.8304073,
      58.1589839
     ],
     [
      7.8297436,
      58.1591006
     ],
     [
      7.829141,
      58.1590926
     ],
     [
      7.8284926,
      58.1590684
     ],
     [
      7.8279128,
      58.159
     ],
     [
      7.8274093,
      58.1588632
     ],
     [
      7.8269821,
      58.1586821
     ],
     [
      7.8266914,
      58.1586024
     ],
     [
      7.8262566,
      58.1586628
     ],
     [
      7.8259057,
      58.1587997
     ],
     [
      7.8258065,
      58.1591015
     ],
     [
      7.8258981,
      58.1594919
     ],
     [
      7.8260125,
      58.159846
     ],
     [
      7.8263024,
      58.1601317
     ],
     [
      7.8264321,
      58.1604255
     ],
     [
      7.8261956,
      58.1606791
     ],
     [
      7.8256616,
      58.1608481
     ],
     [
      7.8251428,
      58.1609406
     ],
     [
      7.8247996,
      58.1611351
     ],
     [
      7.824647,
      58.1614047
     ],
     [
      7.8246775,
      58.1616582
     ],
     [
      7.8250666,
      58.1618514
     ],
     [
      7.8256463,
      58.1619198
     ],
     [
      7.8262871,
      58.1620526
     ],
     [
      7.8268669,
      58.1621814
     ],
     [
      7.827439,
      58.1624512
     ],
     [
      7.8279654,
      58.1628375
     ],
     [
      7.828301,
      58.1631151
     ],
     [
      7.8283697,
      58.1634692
     ],
     [
      7.828446,
      58.1638797
     ],
     [
      7.828507,
      58.1642579
     ],
     [
      7.8285833,
      58.1646402
     ],
     [
      7.8287664,
      58.1651166
     ],
     [
      7.829041,
      58.1655874
     ],
     [
      7.8292775,
      58.1659455
     ],
     [
      7.8295902,
      58.1662674
     ],
     [
      7.8301242,
      58.1668246
     ],
     [
      7.8304523,
      58.1671827
     ],
     [
      7.8308642,
      58.1674604
     ],
     [
      7.8313044,
      58.167751
     ],
     [
      7.8318536,
      58.1680729
     ],
     [
      7.8324181,
      58.1684028
     ],
     [
      7.8330742,
      58.1688956
     ],
     [
      7.833448,
      58.1691974
     ],
     [
      7.83357,
      58.1694669
     ],
     [
      7.8335014,
      58.1697244
     ],
     [
      7.8330971,
      58.1698733
     ],
     [
      7.8323647,
      58.1698733
     ],
     [
      7.8307933,
      58.1697164
     ],
     [
      7.830244,
      58.169817
     ],
     [
      7.8295346,
      58.1699336
     ],
     [
      7.8287946,
      58.1699618
     ],
     [
      7.8279402,
      58.1698652
     ],
     [
      7.8268422,
      58.1697486
     ],
     [
      7.8259345,
      58.1698009
     ],
     [
      7.8252708,
      58.1698733
     ],
     [
      7.8249656,
      58.1700503
     ],
     [
      7.8246071,
      58.1702676
     ],
     [
      7.824302,
      58.1703722
     ],
     [
      7.8242943,
      58.1705894
     ],
     [
      7.8245918,
      58.1707222
     ],
     [
      7.8251411,
      58.1707584
     ],
     [
      7.8255988,
      58.1707101
     ],
     [
      7.825965,
      58.1708509
     ],
     [
      7.8260641,
      58.1711446
     ],
     [
      7.8261023,
      58.1714464
     ],
     [
      7.8260184,
      58.1717003
     ],
     [
      7.825759,
      58.1719497
     ],
     [
      7.8255683,
      58.1721066
     ],
     [
      7.8255607,
      58.1723802
     ],
     [
      7.8255988,
      58.1726457
     ],
     [
      7.8256141,
      58.1729313
     ],
     [
      7.8254233,
      58.1731888
     ],
     [
      7.8249275,
      58.1733618
     ],
     [
      7.8242638,
      58.1733939
     ],
     [
      7.8237451,
      58.1732853
     ],
     [
      7.8234094,
      58.17306
     ],
     [
      7.8231577,
      58.1728187
     ],
     [
      7.8231501,
      58.1725532
     ],
     [
      7.8234399,
      58.1722836
     ],
     [
      7.8239205,
      58.1720342
     ],
     [
      7.8243706,
      58.1717767
     ],
     [
      7.8245079,
      58.1715313
     ],
     [
      7.824485,
      58.1713543
     ],
     [
      7.8242028,
      58.1712175
     ],
     [
      7.8236841,
      58.1711612
     ],
     [
      7.8231424,
      58.1711572
     ],
     [
      7.8222194,
      58.1711813
     ],
     [
      7.8217601,
      58.1713422
     ],
     [
      7.8214931,
      58.1715756
     ],
     [
      7.8213558,
      58.171994
     ],
     [
      7.8213253,
      58.17236
     ],
     [
      7.8212108,
      58.1726175
     ],
     [
      7.8209614,
      58.172793
     ],
     [
      7.8204198,
      58.1728453
     ],
     [
      7.8200689,
      58.1726965
     ],
     [
      7.8197866,
      58.1724229
     ],
     [
      7.8196264,
      58.1721051
     ],
     [
      7.8195959,
      58.1718154
     ],
     [
      7.819451,
      58.1714574
     ],
     [
      7.819245,
      58.171224
     ],
     [
      7.8188178,
      58.1710752
     ],
     [
      7.8182457,
      58.1710792
     ],
     [
      7.8177651,
      58.171212
     ],
     [
      7.8174523,
      58.1715338
     ],
     [
      7.8174218,
      58.1718637
     ],
     [
      7.8176507,
      58.1721011
     ],
     [
      7.8178332,
      58.1723467
     ],
     [
      7.817818,
      58.1726565
     ],
     [
      7.8175357,
      58.1728335
     ],
     [
      7.8169102,
      58.172922
     ],
     [
      7.8161931,
      58.1729984
     ],
     [
      7.8157201,
      58.1731151
     ],
     [
      7.8155981,
      58.1732921
     ],
     [
      7.8157125,
      58.1735375
     ],
     [
      7.8160634,
      58.1736823
     ],
     [
      7.816338,
      58.1738955
     ],
     [
      7.8163838,
      58.1742013
     ],
     [
      7.8162923,
      58.1746026
     ],
     [
      7.8162923,
      58.1749124
     ],
     [
      7.8164677,
      58.1751014
     ],
     [
      7.8168339,
      58.1752985
     ],
     [
      7.8170399,
      58.1754997
     ],
     [
      7.8169636,
      58.1757209
     ],
     [
      7.8165898,
      58.1758979
     ],
     [
      7.8161855,
      58.1760749
     ],
     [
      7.8158803,
      58.1762278
     ],
     [
      7.8154836,
      58.176264
     ],
     [
      7.8151251,
      58.1761433
     ],
     [
      7.8148581,
      58.175906
     ],
     [
      7.8148963,
      58.1756606
     ],
     [
      7.8150183,
      58.1754474
     ],
     [
      7.8149802,
      58.1752382
     ],
     [
      7.8147208,
      58.1750733
     ],
     [
      7.8142402,
      58.175021
     ],
     [
      7.8138435,
      58.1751618
     ],
     [
      7.8134025,
      58.1754422
     ],
     [
      7.8132729,
      58.1756715
     ],
     [
      7.8131355,
      58.1759651
     ],
     [
      7.8128151,
      58.1762427
     ],
     [
      7.8124948,
      58.1764679
     ],
     [
      7.8121438,
      58.1766691
     ],
     [
      7.811976,
      58.1768903
     ],
     [
      7.8120981,
      58.1771397
     ],
     [
      7.8125479,
      58.1772791
     ],
     [
      7.8129523,
      58.1773113
     ],
     [
      7.8135015,
      58.1773354
     ],
     [
      7.8141804,
      58.1774402
     ],
     [
      7.8146076,
      58.1776373
     ],
     [
      7.8146458,
      58.1779712
     ],
     [
      7.8146458,
      58.1783734
     ],
     [
      7.8145619,
      58.178852
     ],
     [
      7.8141499,
      58.1791738
     ],
     [
      7.8137456,
      58.1792543
     ],
     [
      7.8128836,
      58.1794288
     ],
     [
      7.8124183,
      58.1796822
     ],
     [
      7.8117435,
      58.1799144
     ],
     [
      7.8110417,
      58.1801597
     ],
     [
      7.8103551,
      58.1802603
     ],
     [
      7.8097296,
      58.1804372
     ],
     [
      7.8093253,
      58.1806424
     ],
     [
      7.8092414,
      58.1809842
     ],
     [
      7.8094626,
      58.1813261
     ],
     [
      7.809516,
      58.1815232
     ],
     [
      7.8091193,
      58.1815875
     ],
     [
      7.8085472,
      58.1815433
     ],
     [
      7.80812,
      58.1813543
     ],
     [
      7.8076241,
      58.1811491
     ],
     [
      7.8071111,
      58.1810647
     ],
     [
      7.8065085,
      58.1810928
     ],
     [
      7.806066,
      58.1812577
     ],
     [
      7.8059363,
      58.1815393
     ],
     [
      7.8060584,
      58.181816
     ],
     [
      7.8061728,
      58.182001
     ],
     [
      7.8060279,
      58.1822584
     ],
     [
      7.8058066,
      58.1825561
     ],
     [
      7.8056083,
      58.1827652
     ],
     [
      7.8056083,
      58.1829663
     ],
     [
      7.805326,
      58.1831111
     ],
     [
      7.8048683,
      58.1831754
     ],
     [
      7.8042962,
      58.1831633
     ],
     [
      7.8036266,
      58.1831596
     ],
     [
      7.8030316,
      58.1831998
     ],
     [
      7.8024595,
      58.1832963
     ],
     [
      7.8021772,
      58.1835658
     ],
     [
      7.8018568,
      58.1839237
     ],
     [
      7.8015898,
      58.1841288
     ],
     [
      7.8011626,
      58.1842776
     ],
     [
      7.8007507,
      58.1844465
     ],
     [
      7.8002785,
      58.1846417
     ],
     [
      7.7999429,
      58.1849715
     ],
     [
      7.7997674,
      58.1853415
     ],
     [
      7.799592,
      58.1856913
     ],
     [
      7.7994928,
      58.1860429
     ],
     [
      7.7994623,
      58.1863767
     ],
     [
      7.7995462,
      58.1866863
     ],
     [
      7.7998895,
      58.1869035
     ],
     [
      7.8005226,
      58.1870362
     ],
     [
      7.8011405,
      58.1870281
     ],
     [
      7.8018805,
      58.1870885
     ],
     [
      7.802431,
      58.1871814
     ],
     [
      7.8027667,
      58.1874025
     ],
     [
      7.802843,
      58.1877202
     ],
     [
      7.8026599,
      58.1879776
     ],
     [
      7.8023166,
      58.1882671
     ],
     [
      7.8021182,
      58.1885848
     ],
     [
      7.8020954,
      58.1889965
     ],
     [
      7.8022861,
      58.189294
     ],
     [
      7.8024386,
      58.1895594
     ],
     [
      7.8024539,
      58.1897524
     ],
     [
      7.802225,
      58.1899529
     ],
     [
      7.8017445,
      58.1901298
     ],
     [
      7.8010808,
      58.1902343
     ],
     [
      7.8004781,
      58.1902705
     ],
     [
      7.7999212,
      58.1903509
     ],
     [
      7.7994639,
      58.1906083
     ],
     [
      7.7992732,
      58.190753
     ],
     [
      7.7988994,
      58.1907329
     ],
     [
      7.798579,
      58.1906163
     ],
     [
      7.7984036,
      58.1904153
     ],
     [
      7.7983349,
      58.1901619
     ],
     [
      7.7981366,
      58.189989
     ],
     [
      7.7980374,
      58.1897397
     ],
     [
      7.7982815,
      58.1895829
     ],
     [
      7.7987774,
      58.1894341
     ],
     [
      7.7992274,
      58.1892291
     ],
     [
      7.79938,
      58.189024
     ],
     [
      7.7994944,
      58.1887144
     ],
     [
      7.7994868,
      58.1884409
     ],
     [
      7.7992274,
      58.188256
     ],
     [
      7.7988613,
      58.1880911
     ],
     [
      7.7984341,
      58.1880348
     ],
     [
      7.7979992,
      58.1880388
     ],
     [
      7.7975873,
      58.1882037
     ],
     [
      7.796916,
      58.1885053
     ],
     [
      7.7965346,
      58.1888631
     ],
     [
      7.7960692,
      58.1892371
     ],
     [
      7.7956573,
      58.1895668
     ],
     [
      7.7953979,
      58.1897558
     ],
     [
      7.7954437,
      58.1902034
     ],
     [
      7.7955047,
      58.190509
     ],
     [
      7.7958251,
      58.1907503
     ],
     [
      7.7962294,
      58.1910036
     ],
     [
      7.7965041,
      58.1911041
     ],
     [
      7.7969313,
      58.1913574
     ],
     [
      7.7973432,
      58.1917273
     ],
     [
      7.7974119,
      58.1919967
     ],
     [
      7.7973813,
      58.1922581
     ],
     [
      7.7971449,
      58.1924752
     ],
     [
      7.7965117,
      58.1926039
     ],
     [
      7.7954369,
      58.1928471
     ],
     [
      7.7947045,
      58.1931004
     ],
     [
      7.7940256,
      58.193406
     ],
     [
      7.793111,
      58.1939785
     ],
     [
      7.7923252,
      58.1944247
     ],
     [
      7.7914327,
      58.1948268
     ],
     [
      7.7905554,
      58.1952127
     ],
     [
      7.7896946,
      58.1959015
     ],
     [
      7.7891606,
      58.1962231
     ],
     [
      7.7889699,
      58.1964603
     ],
     [
      7.7890538,
      58.1967457
     ],
     [
      7.7892369,
      58.1969668
     ],
     [
      7.789092,
      58.1971679
     ],
     [
      7.7889013,
      58.1973045
     ],
     [
      7.7885656,
      58.1973287
     ],
     [
      7.7882757,
      58.1972563
     ],
     [
      7.7880164,
      58.1973367
     ],
     [
      7.7879019,
      58.1975015
     ],
     [
      7.7873687,
      58.1977709
     ],
     [
      7.7871704,
      58.1980604
     ],
     [
      7.7868001,
      58.1985441
     ],
     [
      7.7863958,
      58.1989662
     ],
     [
      7.7860678,
      58.199328
     ],
     [
      7.785488,
      58.1997099
     ],
     [
      7.785043,
      58.2000521
     ],
     [
      7.7846158,
      58.2003857
     ],
     [
      7.7842115,
      58.2007596
     ],
     [
      7.7837957,
      58.201047
     ],
     [
      7.7835439,
      58.2012761
     ],
     [
      7.7834524,
      58.2015012
     ],
     [
      7.7837499,
      58.2016741
     ],
     [
      7.7842991,
      58.2017103
     ],
     [
      7.7847569,
      58.2016379
     ],
     [
      7.7851917,
      58.2015173
     ],
     [
      7.785596,
      58.2014128
     ],
     [
      7.7860766,
      58.2014128
     ],
     [
      7.7864885,
      58.2015053
     ],
     [
      7.7865648,
      58.2017183
     ],
     [
      7.7864199,
      58.2018831
     ],
     [
      7.7861224,
      58.20206
     ],
     [
      7.7858248,
      58.2022725
     ],
     [
      7.785863,
      58.2026102
     ],
     [
      7.7858172,
      58.2029318
     ],
     [
      7.7857714,
      58.203185
     ],
     [
      7.7855884,
      58.203386
     ],
     [
      7.7853519,
      58.2037276
     ],
     [
      7.785123,
      58.2039884
     ],
     [
      7.7848484,
      58.2042617
     ],
     [
      7.7845051,
      58.2044586
     ],
     [
      7.7840627,
      58.2045229
     ],
     [
      7.7835668,
      58.2044667
     ],
     [
      7.7830176,
      58.2045069
     ],
     [
      7.7822013,
      58.2045872
     ],
     [
      7.7815125,
      58.2050173
     ],
     [
      7.7808183,
      58.2053629
     ],
     [
      7.7801165,
      58.2056845
     ],
     [
      7.7794986,
      58.2060181
     ],
     [
      7.7789646,
      58.2062632
     ],
     [
      7.7778348,
      58.2067067
     ],
     [
      7.7768888,
      58.2070081
     ],
     [
      7.7761718,
      58.2072171
     ],
     [
      7.7754623,
      58.2073095
     ],
     [
      7.7749588,
      58.2074221
     ],
     [
      7.7746613,
      58.207619
     ],
     [
      7.7745316,
      58.2077758
     ],
     [
      7.7740968,
      58.2079445
     ],
     [
      7.7735518,
      58.2081289
     ],
     [
      7.7732238,
      58.2083419
     ],
     [
      7.7726974,
      58.2088884
     ],
     [
      7.772583,
      58.2093286
     ],
     [
      7.7724152,
      58.2097907
     ],
     [
      7.7723541,
      58.2101115
     ],
     [
      7.772316,
      58.2103728
     ],
     [
      7.7724152,
      58.210642
     ],
     [
      7.7723769,
      58.2108059
     ],
     [
      7.7721404,
      58.2108782
     ],
     [
      7.7716293,
      58.2108622
     ],
     [
      7.7709809,
      58.2108421
     ],
     [
      7.770363,
      58.2107657
     ],
     [
      7.7695163,
      58.2106733
     ],
     [
      7.7687,
      58.2106411
     ],
     [
      7.7679906,
      58.2107135
     ],
     [
      7.7673421,
      58.2108702
     ],
     [
      7.7666142,
      58.2111126
     ],
     [
      7.7660955,
      58.2113537
     ],
     [
      7.7659124,
      58.2116189
     ],
     [
      7.7656378,
      58.2118359
     ],
     [
      7.7655844,
      58.2121654
     ],
     [
      7.7655539,
      58.2123486
     ],
     [
      7.7652106,
      58.2127866
     ],
     [
      7.765203,
      58.2130357
     ],
     [
      7.7652945,
      58.2133291
     ],
     [
      7.765325,
      58.2137088
     ],
     [
      7.7650393,
      58.2141983
     ],
     [
      7.7646503,
      58.2146297
     ],
     [
      7.7643451,
      58.214919
     ],
     [
      7.7640476,
      58.2149632
     ],
     [
      7.7635518,
      58.2149149
     ],
     [
      7.7627318,
      58.2148082
     ],
     [
      7.7618545,
      58.2146796
     ],
     [
      7.7611984,
      58.2146153
     ],
     [
      7.7606797,
      58.2147118
     ],
     [
      7.7602678,
      58.2147761
     ],
     [
      7.7595964,
      58.2147761
     ],
     [
      7.7591616,
      58.2148564
     ],
     [
      7.7589404,
      58.2150372
     ],
     [
      7.7589404,
      58.2153627
     ],
     [
      7.7589709,
      58.2156842
     ],
     [
      7.7588107,
      58.2159494
     ],
     [
      7.7586505,
      58.2161703
     ],
     [
      7.7584217,
      58.2164034
     ],
     [
      7.7584483,
      58.2165741
     ],
     [
      7.7584407,
      58.216771
     ],
     [
      7.7582881,
      58.2169558
     ],
     [
      7.7585093,
      58.217251
     ],
     [
      7.7585933,
      58.2174801
     ],
     [
      7.7586085,
      58.2177372
     ],
     [
      7.7587992,
      58.2180686
     ],
     [
      7.7589213,
      58.2182775
     ],
     [
      7.7591044,
      58.2184261
     ],
     [
      7.7593485,
      58.218615
     ]
    ]
   }
  }
 ]
}