{
 "type": "FeatureCollection",
 "features": [
  {
   "type": "Feature",
   "properties": {
    "elv": "lygna",
    "navn": "Lygna senterlinje",
    "retning": "nedstrøms-oppstrøms",
    "fra": "Munningen ved Kvavik",
    "til": "Lygne",
    "lengde_km": 40.23,
    "punkter": 374,
    "tegnet": "2026-09-07",
    "kilde": "manuelt tegnet i geojson.io mot satellittbakgrunn",
    "bruk": "lineærreferanse (km fra munning) for sortering av bilder og video"
   },
   "geometry": {
    "type": "LineString",
    "coordinates": [
     [
      7.0238611,
      58.1417155
     ],
     [
      7.0314142,
      58.142531
     ],
     [
      7.0385811,
      58.1413531
     ],
     [
      7.0455763,
      58.1404696
     ],
     [
      7.0494387,
      58.1424403
     ],
     [
      7.0524857,
      58.1449319
     ],
     [
      7.0536873,
      58.1455208
     ],
     [
      7.0566485,
      58.1457246
     ],
     [
      7.059395,
      58.1457246
     ],
     [
      7.0607683,
      58.1453849
     ],
     [
      7.0616696,
      58.1448413
     ],
     [
      7.0623562,
      58.1438673
     ],
     [
      7.0633433,
      58.1425536
     ],
     [
      7.0644591,
      58.1409
     ],
     [
      7.0652315,
      58.1401299
     ],
     [
      7.0664761,
      58.1397674
     ],
     [
      7.0682356,
      58.1395182
     ],
     [
      7.0698235,
      58.1395182
     ],
     [
      7.0709822,
      58.1399486
     ],
     [
      7.0711538,
      58.1407188
     ],
     [
      7.0703878,
      58.1416139
     ],
     [
      7.0698299,
      58.1426559
     ],
     [
      7.0700874,
      58.1435619
     ],
     [
      7.0706883,
      58.144332
     ],
     [
      7.0715895,
      58.1453286
     ],
     [
      7.0726624,
      58.1460987
     ],
     [
      7.0745506,
      58.1469819
     ],
     [
      7.0766106,
      58.1475029
     ],
     [
      7.0791855,
      58.1481143
     ],
     [
      7.081975,
      58.1485673
     ],
     [
      7.084507,
      58.1489296
     ],
     [
      7.0857515,
      58.1489523
     ],
     [
      7.0866098,
      58.1493826
     ],
     [
      7.087039,
      58.1500167
     ],
     [
      7.0864382,
      58.1505828
     ],
     [
      7.0837774,
      58.151534
     ],
     [
      7.0809021,
      58.1523265
     ],
     [
      7.0787563,
      58.15287
     ],
     [
      7.0774689,
      58.1529606
     ],
     [
      7.0759239,
      58.1527794
     ],
     [
      7.0747223,
      58.1530512
     ],
     [
      7.0736923,
      58.1533908
     ],
     [
      7.0728769,
      58.1540701
     ],
     [
      7.0726624,
      58.1548853
     ],
     [
      7.073349,
      58.15549
     ],
     [
      7.0742502,
      58.1559428
     ],
     [
      7.0754519,
      58.1563051
     ],
     [
      7.076911,
      58.1566447
     ],
     [
      7.0784988,
      58.1567353
     ],
     [
      7.0803013,
      58.1566221
     ],
     [
      7.0816317,
      58.1566447
     ],
     [
      7.0832624,
      58.1565768
     ],
     [
      7.0857515,
      58.1563051
     ],
     [
      7.0874682,
      58.1562145
     ],
     [
      7.0893993,
      58.1564863
     ],
     [
      7.0907297,
      58.1571429
     ],
     [
      7.0906439,
      58.1577768
     ],
     [
      7.090086,
      58.1584108
     ],
     [
      7.0887127,
      58.1586372
     ],
     [
      7.0875111,
      58.1590674
     ],
     [
      7.0871248,
      58.1597692
     ],
     [
      7.0875969,
      58.1613766
     ],
     [
      7.0877686,
      58.1623954
     ],
     [
      7.0878544,
      58.1635952
     ],
     [
      7.0877256,
      58.1646365
     ],
     [
      7.0872107,
      58.165542
     ],
     [
      7.0875111,
      58.1667882
     ],
     [
      7.0876827,
      58.1675351
     ],
     [
      7.0878115,
      58.1689385
     ],
     [
      7.0884981,
      58.170206
     ],
     [
      7.0890989,
      58.1713829
     ],
     [
      7.0899572,
      58.1726503
     ],
     [
      7.0900002,
      58.1738271
     ],
     [
      7.0902576,
      58.1748908
     ],
     [
      7.0914164,
      58.1759997
     ],
     [
      7.0922318,
      58.1769275
     ],
     [
      7.0927467,
      58.1780815
     ],
     [
      7.0933046,
      58.1790772
     ],
     [
      7.0939484,
      58.1802538
     ],
     [
      7.0945921,
      58.1810231
     ],
     [
      7.0950213,
      58.181453
     ],
     [
      7.0969524,
      58.1814078
     ],
     [
      7.0980233,
      58.1822197
     ],
     [
      7.0988387,
      58.1836451
     ],
     [
      7.0997828,
      58.1846858
     ],
     [
      7.100727,
      58.1852288
     ],
     [
      7.1019715,
      58.1857492
     ],
     [
      7.1033877,
      58.1864052
     ],
     [
      7.1058339,
      58.1868577
     ],
     [
      7.1071214,
      58.1872197
     ],
     [
      7.1082801,
      58.1878757
     ],
     [
      7.1090955,
      58.1887353
     ],
     [
      7.1102971,
      58.1893235
     ],
     [
      7.1109408,
      58.190251
     ],
     [
      7.1114987,
      58.1912689
     ],
     [
      7.1123999,
      58.1921284
     ],
     [
      7.1136874,
      58.1927618
     ],
     [
      7.1145713,
      58.1939869
     ],
     [
      7.1155583,
      58.1952535
     ],
     [
      7.1168458,
      58.1963618
     ],
     [
      7.1188628,
      58.1971534
     ],
     [
      7.1201932,
      58.198058
     ],
     [
      7.1210944,
      58.1990079
     ],
     [
      7.1220814,
      58.1997541
     ],
     [
      7.1236693,
      58.2010205
     ],
     [
      7.1247422,
      58.2019071
     ],
     [
      7.126373,
      58.2033091
     ],
     [
      7.1281325,
      58.2047788
     ],
     [
      7.1295487,
      58.2065425
     ],
     [
      7.1311795,
      58.2080799
     ],
     [
      7.132142,
      58.2088227
     ],
     [
      7.1338586,
      58.2093427
     ],
     [
      7.1348027,
      58.2100888
     ],
     [
      7.1359615,
      58.2114452
     ],
     [
      7.1366481,
      58.2126208
     ],
     [
      7.1375493,
      58.2135928
     ],
     [
      7.1388797,
      58.214158
     ],
     [
      7.1396522,
      58.2145803
     ],
     [
      7.1403388,
      58.2154167
     ],
     [
      7.1411542,
      58.2160496
     ],
     [
      7.1428279,
      58.2165243
     ],
     [
      7.1444587,
      58.2167956
     ],
     [
      7.145832,
      58.2176319
     ],
     [
      7.1466474,
      58.2180162
     ],
     [
      7.1474008,
      58.218892
     ],
     [
      7.1478729,
      58.2194118
     ],
     [
      7.1490745,
      58.2200899
     ],
     [
      7.1496324,
      58.2207453
     ],
     [
      7.1504907,
      58.2215138
     ],
     [
      7.1520357,
      58.2221014
     ],
     [
      7.1537094,
      58.2228698
     ],
     [
      7.1551685,
      58.2237859
     ],
     [
      7.1558552,
      58.2245994
     ],
     [
      7.1561127,
      58.2254808
     ],
     [
      7.1563272,
      58.2260231
     ],
     [
      7.156971,
      58.2267463
     ],
     [
      7.1581634,
      58.227459
     ],
     [
      7.1590646,
      58.2281369
     ],
     [
      7.160395,
      58.2290859
     ],
     [
      7.1610387,
      58.2301027
     ],
     [
      7.1611246,
      58.2316392
     ],
     [
      7.1615966,
      58.2324752
     ],
     [
      7.1630558,
      58.233153
     ],
     [
      7.1651887,
      58.2338082
     ],
     [
      7.1672057,
      58.2342148
     ],
     [
      7.1689223,
      58.2348474
     ],
     [
      7.1708535,
      58.2357511
     ],
     [
      7.171626,
      58.23609
     ],
     [
      7.1723126,
      58.2366548
     ],
     [
      7.1737717,
      58.2372796
     ],
     [
      7.1755312,
      58.2382058
     ],
     [
      7.1767758,
      58.239132
     ],
     [
      7.1767758,
      58.2403293
     ],
     [
      7.1771191,
      58.241549
     ],
     [
      7.1777628,
      58.2426558
     ],
     [
      7.1784495,
      58.2441466
     ],
     [
      7.179222,
      58.2455603
     ],
     [
      7.1802519,
      58.2470283
     ],
     [
      7.1813248,
      58.2484285
     ],
     [
      7.1824406,
      58.2496028
     ],
     [
      7.1839427,
      58.2507094
     ],
     [
      7.1849297,
      58.2519514
     ],
     [
      7.1858738,
      58.2533514
     ],
     [
      7.1867751,
      58.2546159
     ],
     [
      7.1879767,
      58.2554062
     ],
     [
      7.188835,
      58.2562416
     ],
     [
      7.1899937,
      58.2572125
     ],
     [
      7.190337,
      58.2577995
     ],
     [
      7.1897791,
      58.2586349
     ],
     [
      7.1902512,
      58.2591541
     ],
     [
      7.1910666,
      58.259854
     ],
     [
      7.1927403,
      58.2599895
     ],
     [
      7.1943282,
      58.2603958
     ],
     [
      7.1957444,
      58.260757
     ],
     [
      7.1955298,
      58.2614569
     ],
     [
      7.1941565,
      58.2622696
     ],
     [
      7.1935557,
      58.2632629
     ],
     [
      7.1919678,
      58.264053
     ],
     [
      7.1899937,
      58.2643013
     ],
     [
      7.1894358,
      58.2654299
     ],
     [
      7.1890067,
      58.2668294
     ],
     [
      7.1884488,
      58.2683191
     ],
     [
      7.1889208,
      58.2695831
     ],
     [
      7.1886633,
      58.2704633
     ],
     [
      7.1891354,
      58.2721109
     ],
     [
      7.1892212,
      58.2734424
     ],
     [
      7.1890925,
      58.2746384
     ],
     [
      7.1898221,
      58.2756991
     ],
     [
      7.1907662,
      58.2771884
     ],
     [
      7.1914958,
      58.2784746
     ],
     [
      7.1911954,
      58.2794223
     ],
     [
      7.1897362,
      58.2807987
     ],
     [
      7.1883629,
      58.2819719
     ],
     [
      7.187848,
      58.2833482
     ],
     [
      7.1878909,
      58.2845665
     ],
     [
      7.1902083,
      58.2849726
     ],
     [
      7.193384,
      58.2856494
     ],
     [
      7.1952318,
      58.2860363
     ],
     [
      7.1968626,
      58.2867807
     ],
     [
      7.1982359,
      58.2877733
     ],
     [
      7.1988796,
      58.2889238
     ],
     [
      7.1980213,
      58.2899614
     ],
     [
      7.1965193,
      58.2908637
     ],
     [
      7.195146,
      58.2918562
     ],
     [
      7.1945452,
      58.2927584
     ],
     [
      7.1952748,
      58.2939538
     ],
     [
      7.1965193,
      58.2948786
     ],
     [
      7.1981072,
      58.2954199
     ],
     [
      7.1999525,
      58.2958484
     ],
     [
      7.2016691,
      58.2958935
     ],
     [
      7.2033428,
      58.2970211
     ],
     [
      7.2045016,
      58.2980134
     ],
     [
      7.2047161,
      58.2991185
     ],
     [
      7.2045016,
      58.3001784
     ],
     [
      7.2048187,
      58.3005775
     ],
     [
      7.2058599,
      58.3011913
     ],
     [
      7.2070025,
      58.3020319
     ],
     [
      7.2077643,
      58.3027257
     ],
     [
      7.2085007,
      58.3033261
     ],
     [
      7.2091609,
      58.3039399
     ],
     [
      7.2098466,
      58.3045269
     ],
     [
      7.2105456,
      58.3050605
     ],
     [
      7.2106726,
      58.3057276
     ],
     [
      7.2105964,
      58.3062879
     ],
     [
      7.2113582,
      58.3065281
     ],
     [
      7.2117391,
      58.3067682
     ],
     [
      7.2118152,
      58.3071551
     ],
     [
      7.2120692,
      58.3078755
     ],
     [
      7.212704,
      58.3083557
     ],
     [
      7.2131352,
      58.3090013
     ],
     [
      7.2137446,
      58.3092948
     ],
     [
      7.2143033,
      58.3099618
     ],
     [
      7.2144048,
      58.3106955
     ],
     [
      7.2150397,
      58.3110556
     ],
     [
      7.2154967,
      58.3113491
     ],
     [
      7.2154713,
      58.3119227
     ],
     [
      7.2149127,
      58.3123228
     ],
     [
      7.2139985,
      58.312723
     ],
     [
      7.2124496,
      58.3132032
     ],
     [
      7.2108498,
      58.3133899
     ],
     [
      7.2089707,
      58.3136433
     ],
     [
      7.2079296,
      58.3141902
     ],
     [
      7.2072948,
      58.3147098
     ],
     [
      7.2073202,
      58.31515
     ],
     [
      7.2081074,
      58.3160836
     ],
     [
      7.2082851,
      58.3169505
     ],
     [
      7.2088945,
      58.317724
     ],
     [
      7.2092247,
      58.3184442
     ],
     [
      7.2093516,
      58.3192711
     ],
     [
      7.208666,
      58.3201646
     ],
     [
      7.2083105,
      58.3211781
     ],
     [
      7.2082597,
      58.3219648
     ],
     [
      7.2085644,
      58.3229516
     ],
     [
      7.2086406,
      58.323285
     ],
     [
      7.2096563,
      58.3233783
     ],
     [
      7.2111037,
      58.323925
     ],
     [
      7.2121195,
      58.3248184
     ],
     [
      7.213059,
      58.3255251
     ],
     [
      7.2132114,
      58.3262459
     ],
     [
      7.2133129,
      58.3266992
     ],
     [
      7.2138208,
      58.3270992
     ],
     [
      7.2144556,
      58.3274326
     ],
     [
      7.2141763,
      58.3278459
     ],
     [
      7.2133891,
      58.3281525
     ],
     [
      7.2119417,
      58.3282592
     ],
     [
      7.2105705,
      58.3282059
     ],
     [
      7.2095802,
      58.3282992
     ],
     [
      7.2084121,
      58.328785
     ],
     [
      7.2081074,
      58.3293583
     ],
     [
      7.2079042,
      58.3305048
     ],
     [
      7.2076757,
      58.3319242
     ],
     [
      7.2074979,
      58.3331507
     ],
     [
      7.2071678,
      58.3340571
     ],
     [
      7.2066092,
      58.335597
     ],
     [
      7.2063045,
      58.3369566
     ],
     [
      7.205949,
      58.3381339
     ],
     [
      7.2053903,
      58.3390269
     ],
     [
      7.2049078,
      58.33976
     ],
     [
      7.2041968,
      58.3408796
     ],
     [
      7.2039429,
      58.3417663
     ],
     [
      7.2038159,
      58.3422195
     ],
     [
      7.2043238,
      58.3427659
     ],
     [
      7.2046285,
      58.3434589
     ],
     [
      7.2052126,
      58.3441386
     ],
     [
      7.2059997,
      58.3444984
     ],
     [
      7.2070662,
      58.3447782
     ],
     [
      7.2087676,
      58.3449248
     ],
     [
      7.2105451,
      58.3454179
     ],
     [
      7.2113323,
      58.3458843
     ],
     [
      7.2108244,
      58.3468438
     ],
     [
      7.2102404,
      58.3476833
     ],
     [
      7.2097071,
      58.3484961
     ],
     [
      7.2094024,
      58.3488426
     ],
     [
      7.2096055,
      58.3492423
     ],
     [
      7.2103166,
      58.3505215
     ],
     [
      7.2110276,
      58.3515074
     ],
     [
      7.2117345,
      58.3523903
     ],
     [
      7.2123947,
      58.3530698
     ],
     [
      7.2131565,
      58.3538159
     ],
     [
      7.2139183,
      58.3543355
     ],
     [
      7.2144008,
      58.3551748
     ],
     [
      7.2144769,
      58.3563871
     ],
     [
      7.2146547,
      58.357594
     ],
     [
      7.2144262,
      58.3584598
     ],
     [
      7.2154419,
      58.3596721
     ],
     [
      7.2159751,
      58.3605645
     ],
     [
      7.2162291,
      58.3613504
     ],
     [
      7.2159497,
      58.3620028
     ],
     [
      7.2152133,
      58.3627087
     ],
     [
      7.2149086,
      58.363428
     ],
     [
      7.2154165,
      58.3641605
     ],
     [
      7.2163814,
      58.3646666
     ],
     [
      7.2178796,
      58.3651861
     ],
     [
      7.2189461,
      58.3655723
     ],
     [
      7.2200126,
      58.3658786
     ],
     [
      7.2203173,
      58.3662116
     ],
     [
      7.219911,
      58.366771
     ],
     [
      7.2194032,
      58.3677687
     ],
     [
      7.2188699,
      58.3684878
     ],
     [
      7.2181081,
      58.3692203
     ],
     [
      7.2176511,
      58.3698595
     ],
     [
      7.217194,
      58.3705884
     ],
     [
      7.2165084,
      58.3711744
     ],
     [
      7.2160513,
      58.3718402
     ],
     [
      7.2154165,
      58.372466
     ],
     [
      7.2157974,
      58.3729055
     ],
     [
      7.2170162,
      58.3736511
     ],
     [
      7.2177019,
      58.37449
     ],
     [
      7.2184383,
      58.3754753
     ],
     [
      7.2189969,
      58.376434
     ],
     [
      7.2196571,
      58.3771529
     ],
     [
      7.2203173,
      58.3779385
     ],
     [
      7.220165,
      58.3783512
     ],
     [
      7.219327,
      58.3790036
     ],
     [
      7.2187684,
      58.379576
     ],
     [
      7.218743,
      58.3801485
     ],
     [
      7.2192,
      58.3805878
     ],
     [
      7.2200634,
      58.3808541
     ],
     [
      7.2206982,
      58.3809207
     ],
     [
      7.2216378,
      58.3808009
     ],
     [
      7.2222726,
      58.3807609
     ],
     [
      7.2230852,
      58.3811337
     ],
     [
      7.2233391,
      58.3818659
     ],
     [
      7.2232629,
      58.3825049
     ],
     [
      7.2229074,
      58.3831971
     ],
     [
      7.2235567,
      58.3840266
     ],
     [
      7.2245217,
      58.3845457
     ],
     [
      7.2257913,
      58.3848386
     ],
     [
      7.2269848,
      58.3848652
     ],
     [
      7.228356,
      58.3847188
     ],
     [
      7.2295749,
      58.3849184
     ],
     [
      7.2306414,
      58.3853444
     ],
     [
      7.2309969,
      58.3856106
     ],
     [
      7.2308953,
      58.3860499
     ],
     [
      7.2305144,
      58.3867953
     ],
     [
      7.230616,
      58.387567
     ],
     [
      7.2312762,
      58.3883124
     ],
     [
      7.2316825,
      58.3889645
     ],
     [
      7.2321142,
      58.3895502
     ],
     [
      7.2331553,
      58.3899095
     ],
     [
      7.2335108,
      58.3903487
     ],
     [
      7.233333,
      58.3907879
     ],
     [
      7.2318603,
      58.3911606
     ],
     [
      7.2302605,
      58.3915998
     ],
     [
      7.229067,
      58.3917329
     ],
     [
      7.2279751,
      58.3917329
     ],
     [
      7.2265531,
      58.3921587
     ],
     [
      7.2248264,
      58.3927285
     ],
     [
      7.2234044,
      58.3933939
     ],
     [
      7.2220331,
      58.3941924
     ],
     [
      7.2210936,
      58.3950175
     ],
     [
      7.2209666,
      58.3958159
     ],
     [
      7.2209412,
      58.3964989
     ],
     [
      7.2211444,
      58.3975768
     ]
    ]
   }
  }
 ]
}